COSMOS 1408 DEB         
1 50032U 82092RU  26281.27700576  .00003376  00000+0  62439-4 0  9990
2 50032  82.5591 110.7570 0014262 197.0291 163.0483 15.48512082272357
COSMOS 1408 DEB         
1 50058U 82092SW  26281.24524367  .00212605  18218-4  32724-3 0  9992
2 50058  82.5976 108.6700 0004817  49.4689 310.7010 16.04224858275308
COSMOS 1408 DEB         
1 50621U 82092ALR 26281.00108028  .00048458  00000+0  27479-3 0  9993
2 50621  82.5580 117.6853 0016859 108.2317 252.0786 15.78634782269363
