COSMOS 2251             
1 22675U 93036A   26269.11069340  .00000064  00000+0  32441-4 0  9999
2 22675  74.0393 150.7991 0024560 168.0527 192.1212 14.33270653738907
COSMOS 2251 DEB         
1 33757U 93036E   26269.39231745  .00000063  00000+0  32636-4 0  9997
2 33757  74.0371 158.4687 0013694 107.7624  13.0535 14.32639078921156
COSMOS 2251 DEB         
1 33758U 93036F   26269.43942124  .00002081  00000+0  50778-3 0  9991
2 33758  74.0281  32.2712 0016442  29.4783  42.2550 14.53222844924825
COSMOS 2251 DEB         
1 33760U 93036H   26269.27230618  .00000166  00000+0  66084-4 0  9994
2 33760  74.0297 113.6880 0019925 148.1612 331.1330 14.35815452922517
COSMOS 2251 DEB         
1 33761U 93036J   26269.25400769  .00000813  00000+0  24888-3 0  9993
2 33761  74.0337  78.3802 0022263  92.1065  82.6551 14.43196409923813
COSMOS 2251 DEB         
1 33762U 93036K   26269.34743319  .00000084  00000+0  39426-4 0  9990
2 33762  74.0410 144.1888 0014615 143.2401 339.9596 14.33734729921699
COSMOS 2251 DEB         
1 33764U 93036M   26269.62411752  .00000506  00000+0  16874-3 0  9996
2 33764  74.0311 100.8268 0022054 353.3724  74.2277 14.39981981923002
COSMOS 2251 DEB         
1 33765U 93036N   26269.41373392  .00032074  00000+0  10302-2 0  9995
2 33765  73.9972 288.2186 0048100 300.4189  59.2265 15.30999424939912
COSMOS 2251 DEB         
1 33766U 93036P   26269.51114937  .00000731  00000+0  25598-3 0  9994
2 33766  74.1876 332.0213 0061376  93.2063 267.6115 14.35698512918741
COSMOS 2251 DEB         
1 33768U 93036R   26269.31574229  .00000168  00000+0  16757-3 0  9999
2 33768  74.0670 115.6227 0366864 209.6235 266.7096 13.58643102872014
COSMOS 2251 DEB         
1 33779U 93036U   26269.56554463  .00008974  00000+0  13021-2 0  9999
2 33779  74.0452 329.5913 0017131 296.2301 133.1514 14.76035151927684
COSMOS 2251 DEB         
1 33782U 93036X   26269.26326781  .00000708  00000+0  22782-3 0  9992
2 33782  74.0303 105.4885 0020027 105.3589  10.2976 14.41054574922671
COSMOS 2251 DEB         
1 33785U 93036AA  26269.56335829  .00004130  00000+0  61085-3 0  9993
2 33785  73.8641 212.9028 0015347  97.8688  17.0339 14.75466088927467
COSMOS 2251 DEB         
1 33789U 93036AE  26269.23506696  .00000402  00000+0  27787-3 0  9992
2 33789  74.0640 319.3161 0240093   7.3235  53.7983 13.89120054890875
COSMOS 2251 DEB         
1 33791U 93036AG  26269.58428418  .00001614  00000+0  47451-3 0  9994
2 33791  74.1721 226.9071 0029034 330.8199 149.3949 14.44285010922062
COSMOS 2251 DEB         
1 33792U 93036AH  26269.28000788  .00000406  00000+0  40716-3 0  9993
2 33792  73.8978 245.8993 0432260 259.7179 209.2205 13.46237492863115
COSMOS 2251 DEB         
1 33793U 93036AJ  26269.51303473  .00000851  00000+0  33928-3 0  9998
2 33793  73.9830 346.5006 0076070  70.6356 303.6182 14.28495812913154
COSMOS 2251 DEB         
1 33795U 93036AL  26269.52116016  .00029347  00000+0  13752-2 0  9999
2 33795  74.0438 200.1463 0029283 211.7820 264.7872 15.19190523943734
COSMOS 2251 DEB         
1 33797U 93036AN  26269.58330904  .00001156  00000+0  24661-3 0  9991
2 33797  74.0459 207.3517 0062939 222.2543 311.5288 14.58885154931813
COSMOS 2251 DEB         
1 33798U 93036AP  26269.26900696  .00000234  00000+0  71900-4 0  9993
2 33798  74.0301 320.2184 0091028   9.9214  63.8105 14.44864170927462
COSMOS 2251 DEB         
1 33799U 93036AQ  26269.28372353  .00009165  00000+0  10282-2 0  9995
2 33799  74.0302 232.1217 0025666 235.8633 243.8099 14.86669874930750
COSMOS 2251 DEB         
1 33805U 93036AW  26269.62542168  .00000564  00000+0  12518-3 0  9993
2 33805  74.0289 123.3851 0061567 238.9736 120.5375 14.58425557934237
COSMOS 2251 DEB         
1 33811U 93036BC  26269.52142904  .00027022  00000+0  13431-2 0  9995
2 33811  73.8239  59.9209 0028920  84.7262 339.2457 15.17172219943661
COSMOS 2251 DEB         
1 33816U 93036BH  26269.60136796  .00000432  00000+0  32396-3 0  9999
2 33816  73.8968 337.2950 0266359 295.9192  61.4699 13.82150123886509
COSMOS 2251 DEB         
1 33818U 93036BK  26269.43284739  .00171917  00000+0  27073-2 0  9995
2 33818  74.0644 275.3509 0009332 234.2790 125.7558 15.52843187942625
COSMOS 2251 DEB         
1 33819U 93036BL  26269.45817551  .00001662  00000+0  58890-3 0  9993
2 33819  74.1791  48.9779 0088170 189.5191 237.2069 14.33098104916162
COSMOS 2251 DEB         
1 33821U 93036BN  26269.29807639  .00046056  00000+0  95037-3 0  9994
2 33821  74.0206 245.3349 0034036 206.2266 153.7223 15.45012382794147
COSMOS 2251 DEB         
1 33822U 93036BP  26269.49606476  .00001635  00000+0  77412-3 0  9994
2 33822  74.0682  44.9663 0152622  21.6203  46.3480 14.14454353901213
COSMOS 2251 DEB         
1 33823U 93036BQ  26269.32211014  .00000694  00000+0  40954-3 0  9992
2 33823  73.8124   5.0455 0206492  80.0245  10.2748 13.99519622896324
COSMOS 2251 DEB         
1 33825U 93036BS  26269.24413150  .00006257  00000+0  92040-3 0  9994
2 33825  73.9833 186.5907 0074813  84.7514  68.6159 14.73715201931104
COSMOS 2251 DEB         
1 33826U 93036BT  26269.64423429  .00005494  00000+0  12251-2 0  9996
2 33826  74.0630 227.0078 0082741 200.7851 333.7913 14.54967324919525
COSMOS 2251 DEB         
1 33828U 93036BV  26269.51934869  .00000891  00000+0  26157-3 0  9996
2 33828  74.0449  62.5729 0028190  65.2489 355.9069 14.45040984924695
COSMOS 2251 DEB         
1 33830U 93036BX  26269.45478022  .00004616  00000+0  60880-3 0  9996
2 33830  74.0329  24.7141 0040341  71.5102 357.6820 14.79806738937240
COSMOS 2251 DEB         
1 33832U 93036BZ  26269.31884942  .00004886  00000+0  93793-3 0  9993
2 33832  74.0565  19.6241 0023654 338.7172  42.9484 14.63801485926291
COSMOS 2251 DEB         
1 33835U 93036CC  26269.44270383  .00002972  00000+0  55515-3 0  9992
2 33835  74.0538 269.6761 0056609 249.1317 235.3004 14.64385211929980
COSMOS 2251 DEB         
1 33836U 93036CD  26269.63597008  .00007274  00000+0  86968-3 0  9996
2 33836  73.9961  48.4863 0022471 184.1587 189.6781 14.84165163683548
COSMOS 2251 DEB         
1 33837U 93036CE  26268.86911890  .00000705  00000+0  18331-3 0  9991
2 33837  74.0106 234.7671 0033326  23.7601 336.5089 14.51191766929601
COSMOS 2251 DEB         
1 33838U 93036CF  26269.55263124  .00000720  00000+0  19611-3 0  9998
2 33838  74.0382 330.4563 0026452  16.7395  50.7329 14.49051792927371
COSMOS 2251 DEB         
1 33839U 93036CG  26269.35098170  .00000645  00000+0  12021-3 0  9998
2 33839  74.0412  13.4783 0082757  51.9346   4.5467 14.65073249937915
COSMOS 2251 DEB         
1 33841U 93036CJ  26269.27001338  .00000342  00000+0  12110-3 0  9995
2 33841  74.0352 108.4971 0020100 124.0808 351.3813 14.38171237922473
COSMOS 2251 DEB         
1 33842U 93036CK  26269.46126903  .00000623  00000+0  19097-3 0  9996
2 33842  74.0335  45.3304 0045893  82.9090 277.7282 14.43191501924874
COSMOS 2251 DEB         
1 33844U 93036CM  26269.40937856  .00000611  00000+0  22400-3 0  9998
2 33844  74.0640 247.2913 0048899 200.5305 288.2367 14.34279415918493
COSMOS 2251 DEB         
1 33848U 93036CR  26269.46851017  .00002046  00000+0  57874-3 0  9999
2 33848  74.0301 181.4244 0043135 172.6879 306.1050 14.45706208919879
COSMOS 2251 DEB         
1 33892U 93036CV  26269.48150674  .00000882  00000+0  36928-3 0  9994
2 33892  73.8009 296.7295 0115870 276.7593 154.0721 14.24088338910501
COSMOS 2251 DEB         
1 33894U 93036CX  26269.38501825  .00000590  00000+0  62348-3 0  9994
2 33894  73.7626 263.8683 0568140 142.6840 221.5171 13.22004673845087
COSMOS 2251 DEB         
1 33896U 93036CZ  26269.56829083  .00001157  00000+0  51798-3 0  9992
2 33896  73.7690 353.7696 0122975 121.5364 301.2770 14.19750603908249
COSMOS 2251 DEB         
1 33899U 93036DC  26269.42879193  .00001815  00000+0  35149-3 0  9990
2 33899  74.0501 255.2737 0058124 243.7812 241.0907 14.63028792930444
COSMOS 2251 DEB         
1 33900U 93036DD  26269.20085294  .00001102  00000+0  23567-3 0  9990
2 33900  74.0183 171.6658 0048742 250.6316 263.7321 14.59327782932288
COSMOS 2251 DEB         
1 33905U 93036DJ  26269.13011319  .00001032  00000+0  35604-3 0  9991
2 33905  73.8854 144.3006 0056578 332.1938 182.6966 14.36267206918121
COSMOS 2251 DEB         
1 33906U 93036DK  26269.06306370  .00005169  00000+0  10538-2 0  9991
2 33906  74.0278 133.5457 0034433 100.9786  49.4702 14.60844966921991
COSMOS 2251 DEB         
1 33907U 93036DL  26269.33212936  .00002673  00000+0  90704-3 0  9997
2 33907  74.0670 229.8050 0116945 216.4030 295.2606 14.33371283906972
COSMOS 2251 DEB         
1 33908U 93036DM  26269.45669668  .00001436  00000+0  67363-3 0  9990
2 33908  73.8365  54.2864 0219460  25.8855 335.3066 14.09155913895243
COSMOS 2251 DEB         
1 33911U 93036DQ  26269.29124324  .00009436  00000+0  12108-2 0  9995
2 33911  74.0902 318.6013 0010043 191.8538 288.3472 14.81303579928943
COSMOS 2251 DEB         
1 33912U 93036DR  26269.29970934  .00001639  00000+0  40069-3 0  9997
2 33912  74.0356   7.2676 0011066  11.6123  15.4222 14.53352218926097
COSMOS 2251 DEB         
1 33913U 93036DS  26269.40659029  .00001033  00000+0  27343-3 0  9998
2 33913  74.0362   4.1910 0046639  34.3743  41.0607 14.49437049926246
COSMOS 2251 DEB         
1 33914U 93036DT  26269.42201277  .00000490  00000+0  40431-3 0  9998
2 33914  74.0874 260.8011 0305122 296.6831 181.2742 13.72290036880271
COSMOS 2251 DEB         
1 33915U 93036DU  26269.61002525  .00000754  00000+0  25341-3 0  9991
2 33915  74.0414 226.1869 0107283 247.9802 225.6686 14.35732690918889
COSMOS 2251 DEB         
1 33916U 93036DV  26269.33730769  .00000287  00000+0  24824-3 0  9995
2 33916  74.0495 287.9652 0323046  35.6962 339.5099 13.68820958878260
COSMOS 2251 DEB         
1 33917U 93036DW  26269.54433325  .00001029  00000+0  80914-3 0  9994
2 33917  74.1078  10.1612 0331940  42.8858 319.7636 13.70048163876748
COSMOS 2251 DEB         
1 33920U 93036DZ  26268.59070150  .00003918  00000+0  78345-3 0  9999
2 33920  74.0572 111.4930 0033224  50.1871 310.2211 14.61852846923020
COSMOS 2251 DEB         
1 33922U 93036EB  26269.26122654  .00000718  00000+0  19079-3 0  9997
2 33922  74.0482 328.2588 0022749   1.8224  61.9082 14.50260928927453
COSMOS 2251 DEB         
1 33924U 93036ED  26269.40754335  .00000347  00000+0  34564-3 0  9996
2 33924  73.9132 167.6797 0401595 150.8606 211.5575 13.50535329866227
COSMOS 2251 DEB         
1 33928U 93036EH  26269.58744986  .00000577  00000+0  15981-3 0  9997
2 33928  73.9237 230.3475 0058745 103.1447 257.6276 14.47910454928105
COSMOS 2251 DEB         
1 33932U 93036EM  26269.32782367  .00000744  00000+0  24569-3 0  9997
2 33932  74.0329 145.1818 0036256 155.3937 204.8958 14.39401516921350
COSMOS 2251 DEB         
1 33933U 93036EN  26269.38497211  .00000448  00000+0  16489-3 0  9998
2 33933  74.0861 255.6147 0071915 192.5679 167.3684 14.33969355919070
COSMOS 2251 DEB         
1 33934U 93036EP  26269.44308888  .00002274  00000+0  46967-3 0  9990
2 33934  74.0340 271.4639 0017480 311.8851  48.0823 14.60891144929385
COSMOS 2251 DEB         
1 33936U 93036ER  26269.25880046  .00002029  00000+0  41009-3 0  9992
2 33936  74.0163 207.1694 0028943 285.0901  74.7064 14.61813276930893
COSMOS 2251 DEB         
1 33938U 93036ET  26269.42873542  .00001070  00000+0  29735-3 0  9993
2 33938  74.0464  29.6094 0015849  39.5386  21.8971 14.47626122925621
COSMOS 2251 DEB         
1 33939U 93036EU  26269.23249386  .00462125  00000+0  63824-2 0  9994
2 33939  73.9861 196.0512 0018432 184.8183 175.2858 15.55334513931226
COSMOS 2251 DEB         
1 33940U 93036EV  26269.39587829  .00002190  00000+0  45279-3 0  9997
2 33940  74.0387 314.6545 0013109 315.0552  58.0149 14.60921799927927
COSMOS 2251 DEB         
1 33942U 93036EX  26268.96244461  .00000353  00000+0  12428-3 0  9992
2 33942  74.0339 105.7009 0019866 124.2758  32.2935 14.38297192922632
COSMOS 2251 DEB         
1 33944U 93036EZ  26269.09933292  .00000454  00000+0  14866-3 0  9996
2 33944  74.0392 140.0144 0113082 170.0997 348.8807 14.37776603921578
COSMOS 2251 DEB         
1 33945U 93036FA  26269.34164596  .00000189  00000+0  75535-4 0  9994
2 33945  74.0288 139.1982 0022519 161.6322 198.5648 14.34776101921409
COSMOS 2251 DEB         
1 33948U 93036FD  26269.08665053  .00000265  00000+0  10015-3 0  9998
2 33948  74.0345 137.8029 0022968 149.3827 210.8672 14.35876960921471
COSMOS 2251 DEB         
1 33971U 93036FE  26269.24425461  .00000497  00000+0  16559-3 0  9995
2 33971  74.0226  82.1702 0018109 118.1810  56.5355 14.40131558922773
COSMOS 2251 DEB         
1 33972U 93036FF  26269.32803497  .00003730  00000+0  11252-2 0  9991
2 33972  73.9963  19.7116 0119668 120.3680 272.0336 14.38740801912077
COSMOS 2251 DEB         
1 33973U 93036FG  26269.43303310  .00000262  00000+0  81041-4 0  9995
2 33973  74.0063 285.6171 0045273  33.5438  80.7912 14.45616924927573
COSMOS 2251 DEB         
1 33975U 93036FJ  26269.47445555  .00000352  00000+0  21582-3 0  9992
2 33975  73.7998 298.4888 0189857  21.0848 339.7976 14.00868824898583
COSMOS 2251 DEB         
1 33980U 93036FP  26269.33418350  .00002297  00000+0  48084-3 0  9992
2 33980  74.0178 230.4976 0030147 297.6497 212.8505 14.60097692929908
COSMOS 2251 DEB         
1 33982U 93036FR  26269.50093858  .00001106  00000+0  22159-3 0  9998
2 33982  74.0697 171.1155 0073913 142.1268  32.2410 14.61316815933618
COSMOS 2251 DEB         
1 33983U 93036FS  26269.21037663  .00000960  00000+0  24618-3 0  9998
2 33983  74.0507 326.6477 0021134 351.3659  76.9569 14.51558348927991
COSMOS 2251 DEB         
1 33984U 93036FT  26269.38574466  .00002536  00000+0  44039-3 0  9994
2 33984  74.0075 150.5216 0023708 268.5160 207.5134 14.68576655932863
COSMOS 2251 DEB         
1 33986U 93036FV  26269.35640506  .00001057  00000+0  31223-3 0  9990
2 33986  74.0338 127.8871 0041203 133.7949  40.4933 14.44261991921798
COSMOS 2251 DEB         
1 33990U 93036FZ  26269.11081198  .00000240  00000+0  24415-3 0  9993
2 33990  73.9279 184.5193 0404436 151.6694 276.2667 13.50304882866085
COSMOS 2251 DEB         
1 33992U 93036GB  26269.13098299  .00001984  00000+0  34313-3 0  9991
2 33992  74.0214 142.3702 0053287 188.6936 327.0727 14.68173042933404
COSMOS 2251 DEB         
1 33994U 93036GD  26269.40005263  .00000164  00000+0  58545-4 0  9995
2 33994  74.0455  17.9999 0021978  82.6753 339.3453 14.41370528925648
COSMOS 2251 DEB         
1 33995U 93036GE  26269.15449244  .00001369  00000+0  47085-3 0  9993
2 33995  74.0603 312.9566 0062079 256.7915 102.6307 14.35904919916439
COSMOS 2251 DEB         
1 33999U 93036GJ  26268.69702951  .00012919  00000+0  13381-2 0  9996
2 33999  73.9174  15.3295 0039075 202.1276 157.8221 14.89511498935154
COSMOS 2251 DEB         
1 34001U 93036GL  26269.27326770  .00000244  00000+0  90434-4 0  9991
2 34001  74.0363 112.7521 0019617 129.1911 348.8798 14.37349788922778
COSMOS 2251 DEB         
1 34003U 93036GN  26269.11123514  .00001298  00000+0  86597-3 0  9991
2 34003  74.0762 160.9107 0275987 206.0829 152.6175 13.85154597884035
COSMOS 2251 DEB         
1 34004U 93036GP  26269.04553460  .00002593  00000+0  65781-3 0  9992
2 34004  74.0331 133.3343 0030332  81.2538 279.2056 14.51049459921958
COSMOS 2251 DEB         
1 34005U 93036GQ  26269.50571641  .00000193  00000+0  68903-4 0  9999
2 34005  74.0459  41.8783 0019412  91.4057 342.3840 14.40485861925222
COSMOS 2251 DEB         
1 34006U 93036GR  26269.42718277  .00084208  00000+0  33921-2 0  9998
2 34006  74.0524 270.7978 0005148 271.3521 213.9659 15.24431936930089
COSMOS 2251 DEB         
1 34007U 93036GS  26269.37407533  .00001843  00000+0  33228-3 0  9998
2 34007  74.0171 152.2586 0046571 214.5381 145.2761 14.66596768932943
COSMOS 2251 DEB         
1 34008U 93036GT  26269.43565025  .00000175  00000+0  72853-4 0  9992
2 34008  74.0347 164.6769 0022348  93.5797  20.0288 14.33299249920861
COSMOS 2251 DEB         
1 34009U 93036GU  26269.49148802  .00000194  00000+0  79410-4 0  9996
2 34009  74.0377 171.0003 0027582 175.3680 359.3027 14.33404298920684
COSMOS 2251 DEB         
1 34011U 93036GW  26269.08332157  .00001471  00000+0  44331-3 0  9994
2 34011  74.0130 156.3086 0038289 174.8652 185.2906 14.43014452920592
COSMOS 2251 DEB         
1 34014U 93036GZ  26269.21916850  .00004841  00000+0  70059-3 0  9990
2 34014  74.0139  78.4192 0037695 146.3686  27.9634 14.75923550935417
COSMOS 2251 DEB         
1 34015U 93036HA  26269.30473506  .00003252  00000+0  65051-3 0  9998
2 34015  74.0247 329.1866 0021637 348.6092  85.3399 14.62116274927318
COSMOS 2251 DEB         
1 34018U 93036HD  26269.55335830  .00000391  00000+0  29934-3 0  9996
2 34018  73.8784 324.1794 0266444 306.9131 119.9838 13.81370287886319
COSMOS 2251 DEB         
1 34019U 93036HE  26269.40152595  .00001746  00000+0  61083-3 0  9992
2 34019  73.9507 241.2348 0061111 354.2178 160.8578 14.34886823916451
COSMOS 2251 DEB         
1 34021U 93036HG  26269.17709885  .00000629  00000+0  16684-3 0  9995
2 34021  74.0352 309.7348 0019694  16.4720  41.7876 14.50689198927974
COSMOS 2251 DEB         
1 34022U 93036HH  26269.24337013  .00000344  00000+0  11900-3 0  9994
2 34022  74.0515 100.8772 0021574  98.1724  20.0217 14.39284466923317
COSMOS 2251 DEB         
1 34023U 93036HJ  26268.92784537  .00000578  00000+0  18740-3 0  9994
2 34023  74.0227  80.0066 0017961 111.0378  41.0737 14.41041159923502
COSMOS 2251 DEB         
1 34024U 93036HK  26269.15228551  .00000265  00000+0  10078-3 0  9999
2 34024  74.0461 149.0910 0020651 135.5772  26.9974 14.35643040921486
COSMOS 2251 DEB         
1 34026U 93036HM  26269.60849765  .00001124  00000+0  92914-3 0  9991
2 34026  73.7663 218.4223 0345107  43.5691 129.5907 13.65812436874617
COSMOS 2251 DEB         
1 34028U 93036HP  26269.34984091  .00000297  00000+0  35709-3 0  9995
2 34028  73.8793 266.1602 0545588 355.4954  63.7927 13.20827768848052
COSMOS 2251 DEB         
1 34031U 93036HS  26269.48055735  .00002893  00000+0  57958-3 0  9992
2 34031  74.0114 304.8779 0023360 346.5483  81.5524 14.62077218927680
COSMOS 2251 DEB         
1 34035U 93036HW  26269.15798716  .00003270  00000+0  76185-3 0  9996
2 34035  74.0641 167.1742 0040272 102.0107  47.9016 14.54719046921429
COSMOS 2251 DEB         
1 34036U 93036HX  26269.17688340  .00110593  00000+0  40338-2 0  9997
2 34036  73.9965 274.7978 0015772 269.9925  89.9469 15.27516603929095
COSMOS 2251 DEB         
1 34037U 93036HY  26269.29207887  .00000801  00000+0  28347-3 0  9991
2 34037  74.0486 243.7804 0055073 224.7206 134.9500 14.35369801918425
COSMOS 2251 DEB         
1 34040U 93036JB  26269.17661578  .00001427  00000+0  11158-2 0  9999
2 34040  73.9566 310.5275 0339188 207.8351 150.4256 13.69295787875336
COSMOS 2251 DEB         
1 34045U 93036JG  26269.43641083  .00000141  00000+0  59356-4 0  9998
2 34045  74.0384 144.3677 0026197 162.3691  10.7530 14.34190013921575
COSMOS 2251 DEB         
1 34046U 93036JH  26269.22656088  .00002136  00000+0  55495-3 0  9992
2 34046  74.0372 192.5984 0077163 205.9267 305.4452 14.48540915919862
COSMOS 2251 DEB         
1 34050U 93036JM  26269.22029061  .00000412  00000+0  25658-3 0  9995
2 34050  74.0855 236.5749 0219402 232.3024 140.4179 13.96768968894452
COSMOS 2251 DEB         
1 34053U 93036JQ  26269.04761527  .00000182  00000+0  18832-3 0  9998
2 34053  73.8437 139.0160 0422990 239.7922 116.0664 13.49416764865591
COSMOS 2251 DEB         
1 34056U 93036JT  26269.37279142  .00001968  00000+0  82795-3 0  9996
2 34056  74.0557 281.2458 0128497 260.2406 163.3770 14.22096200904982
COSMOS 2251 DEB         
1 34058U 93036JV  26269.51890093  .00000194  00000+0  19315-3 0  9996
2 34058  73.9308  71.5115 0378458  12.1603  42.7146 13.56372767870444
COSMOS 2251 DEB         
1 34059U 93036JW  26269.51003640  .00001506  00000+0  36082-3 0  9999
2 34059  74.0398   2.6785 0018159   4.9660   8.5032 14.54305243926412
COSMOS 2251 DEB         
1 34061U 93036JY  26268.96625767  .00000545  00000+0  17797-3 0  9994
2 34061  74.0367  92.2221 0019726 103.2006  48.7184 14.40836088923163
COSMOS 2251 DEB         
1 34062U 93036JZ  26269.06229461  .00013083  00000+0  14245-2 0  9993
2 34062  74.0237 288.9174 0069887 293.4009  97.1598 14.86255055928553
COSMOS 2251 DEB         
1 34064U 93036KB  26268.95854178  .00000926  00000+0  28284-3 0  9992
2 34064  74.0295  97.6252 0021670  98.3513  61.7275 14.43115819922842
COSMOS 2251 DEB         
1 34065U 93036KC  26268.60676439  .00000252  00000+0  91374-4 0  9990
2 34065  74.0332  89.6041 0015774 123.2989 312.2853 14.38294417923297
COSMOS 2251 DEB         
1 34070U 93036KH  26268.96680219  .00013591  00000+0  16008-2 0  9995
2 34070  73.9958 267.9574 0021325 303.6047  83.5830 14.84665703928643
COSMOS 2251 DEB         
1 34114U 93036KK  26269.29053146  .00006387  00000+0  12906-2 0  9992
2 34114  74.0561 216.5754 0042153 146.6476   3.6698 14.61001953919952
COSMOS 2251 DEB         
1 34115U 93036KL  26269.36627135  .00007782  00000+0  94187-3 0  9998
2 34115  74.0068  32.7149 0028267 142.3934 217.9228 14.83531808936727
COSMOS 2251 DEB         
1 34116U 93036KM  26269.60861289  .00001748  00000+0  41658-3 0  9997
2 34116  74.0422 358.9834 0011821 359.2805  65.6187 14.54487892926700
COSMOS 2251 DEB         
1 34117U 93036KN  26269.16088858  .00001077  00000+0  33712-3 0  9999
2 34117  74.0392 172.3146 0056879 180.7580 179.3499 14.40957929922624
COSMOS 2251 DEB         
1 34118U 93036KP  26269.50250179  .00025406  00000+0  17135-2 0  9997
2 34118  73.9500  21.2381 0049125 138.0501 320.6422 15.05548826934918
COSMOS 2251 DEB         
1 34120U 93036KR  26269.50124569  .00000378  00000+0  24213-3 0  9990
2 34120  73.9902  77.6309 0182386 202.7565 223.8448 13.98927747900040
COSMOS 2251 DEB         
1 34121U 93036KS  26269.63573150  .00001103  00000+0  69175-3 0  9992
2 34121  73.9925 323.3853 0234927 106.9488  13.4101 13.92859136891328
COSMOS 2251 DEB         
1 34122U 93036KT  26269.51212644  .00003635  00000+0  60840-3 0  9990
2 34122  74.0331 283.3396 0076450 106.9378  20.4511 14.68248906929047
COSMOS 2251 DEB         
1 34127U 93036KY  26269.35123802  .00005446  00000+0  18446-2 0  9990
2 34127  74.1747 243.0964 0110012 359.5679 150.8765 14.33606443908908
COSMOS 2251 DEB         
1 34128U 93036KZ  26269.49203203  .00059312  00000+0  25461-2 0  9996
2 34128  73.9872  59.6056 0020629 103.5887 320.2146 15.22221751935157
COSMOS 2251 DEB         
1 34129U 93036LA  26269.37757566  .00005674  00000+0  74680-3 0  9990
2 34129  74.0307 134.4289 0033207 147.7243 212.5975 14.80007153655484
COSMOS 2251 DEB         
1 34136U 93036LH  26269.49986434  .00001934  00000+0  23490-3 0  9997
2 34136  74.0190 194.2378 0085869 242.5711 235.9414 14.81723602942706
COSMOS 2251 DEB         
1 34139U 93036LL  26269.49067503  .00004499  00000+0  88278-3 0  9991
2 34139  74.0284  63.7751 0040941  66.2340 350.8892 14.62477058923525
COSMOS 2251 DEB         
1 34141U 93036LN  26269.29031970  .00003970  00000+0  96897-3 0  9990
2 34141  74.0090 207.1373 0052422 225.3216 287.6073 14.52146708918643
COSMOS 2251 DEB         
1 34270U 93036LQ  26269.24482289  .00002184  00000+0  39116-3 0  9998
2 34270  74.0081 111.8217 0049380 193.5911 166.3933 14.66677519933099
COSMOS 2251 DEB         
1 34271U 93036LR  26269.23678587  .00010333  00000+0  14563-2 0  9999
2 34271  74.0207 357.3216 0018106 345.0891  45.5544 14.77238571924728
COSMOS 2251 DEB         
1 34273U 93036LT  26268.25408750  .00002651  00000+0  51883-3 0  9996
2 34273  74.0325 258.5487 0016622 299.4593  73.7550 14.63265020928105
COSMOS 2251 DEB         
1 34274U 93036LU  26269.33529157  .00004669  00000+0  82522-3 0  9997
2 34274  74.0012 233.0325 0023648 301.9068 208.4586 14.67514139928917
COSMOS 2251 DEB         
1 34276U 93036LW  26269.12409220  .00002038  00000+0  44174-3 0  9993
2 34276  74.0197 258.1598 0023232 324.2448 155.0897 14.58679735927816
COSMOS 2251 DEB         
1 34297U 93036MT  26269.28112534  .00000210  00000+0  79753-4 0  9994
2 34297  74.0462 116.1377 0016462 120.0883 358.0517 14.36817382921944
COSMOS 2251 DEB         
1 34301U 93036MX  26269.20023549  .00026869  00000+0  21373-2 0  9990
2 34301  74.0010 307.7584 0014730 302.9745 119.6658 15.00229184926908
COSMOS 2251 DEB         
1 34302U 93036MY  26269.53265126  .00001506  00000+0  46573-3 0  9997
2 34302  74.1781 316.3615 0074537  89.4888  54.8115 14.40511953918632
COSMOS 2251 DEB         
1 34303U 93036MZ  26269.00743111  .00005000  00000+0  98685-3 0  9999
2 34303  74.0016 102.0775 0133175 170.8673 343.3549 14.57169182921431
COSMOS 2251 DEB         
1 34304U 93036NA  26269.19491538  .00001836  00000+0  54440-3 0  9997
2 34304  74.0116 311.4703 0125621  19.0215  44.7655 14.39559894914315
COSMOS 2251 DEB         
1 34307U 93036ND  26269.54714619  .00001204  00000+0  10930-2 0  9991
2 34307  74.0532 211.0907 0392045 339.1960 135.2878 13.54779768867590
COSMOS 2251 DEB         
1 34314U 93036NL  26269.39460712  .00000620  00000+0  29892-3 0  9993
2 34314  74.0054 154.7670 0104696 195.9742 282.3345 14.17961132907345
COSMOS 2251 DEB         
1 34316U 93036NN  26268.98666719  .00018963  00000+0  14026-2 0  9995
2 34316  74.0591 115.6504 0012496 150.0636 210.1270 15.03087681935111
COSMOS 2251 DEB         
1 34317U 93036NP  26269.45888209  .00000505  00000+0  44000-3 0  9998
2 34317  73.9215 281.9351 0336671 217.5046 269.2161 13.65456209875465
COSMOS 2251 DEB         
1 34321U 93036NT  26269.55904019  .00001095  00000+0  28328-3 0  9992
2 34321  74.0299 335.0946 0014611  27.4284  40.3432 14.51035060926600
COSMOS 2251 DEB         
1 34323U 93036NV  26269.02160644  .00010366  00000+0  12983-2 0  9994
2 34323  73.9478 275.7243 0056411 254.8748 135.8753 14.81197937926852
COSMOS 2251 DEB         
1 34325U 93036NX  26269.48468806  .00001072  00000+0  57143-3 0  9999
2 34325  73.8699  45.1786 0190934   8.3429  55.8012 14.05701855895575
COSMOS 2251 DEB         
1 34327U 93036NZ  26269.45175061  .00008511  00000+0  76199-3 0  9993
2 34327  73.9917 312.0625 0029004  51.0717  10.7152 14.95636660938015
COSMOS 2251 DEB         
1 34340U 93036PN  26269.55146872  .00000240  00000+0  18442-3 0  9995
2 34340  74.0768 186.8378 0289481 228.2523 309.8842 13.80234814882382
COSMOS 2251 DEB         
1 34343U 93036PR  26269.31146284  .00006590  00000+0  10140-2 0  9999
2 34343  74.0159 249.7501 0016376  94.2335  22.1236 14.73589852929617
COSMOS 2251 DEB         
1 34344U 93036PS  26269.18372615  .00002000  00000+0  88648-3 0  9995
2 34344  73.9771 316.4278 0148309  75.4590 342.0733 14.17994302901697
COSMOS 2251 DEB         
1 34346U 93036PU  26269.19771683  .00000438  00000+0  25914-3 0  9996
2 34346  73.9945 172.9997 0207502 287.5693 227.2092 14.00591351894339
COSMOS 2251 DEB         
1 34387U 93036QC  26269.41346535  .00000733  00000+0  21873-3 0  9998
2 34387  74.0414  36.9041 0037369  63.0185 353.6546 14.44376785923343
COSMOS 2251 DEB         
1 34388U 93036QD  26269.14959959  .00001647  00000+0  42596-3 0  9999
2 34388  74.0388  43.3767 0013024  21.5063 153.0602 14.50666525923219
COSMOS 2251 DEB         
1 34389U 93036QE  26269.51848856  .00000779  00000+0  24377-3 0  9996
2 34389  74.0165  75.8805 0028723 121.5722 295.2983 14.42123676921609
COSMOS 2251 DEB         
1 34396U 93036QM  26269.11521063  .00008897  00000+0  11578-2 0  9995
2 34396  74.0254 279.3660 0010007 268.4574 158.2069 14.80724442925920
COSMOS 2251 DEB         
1 34409U 93036RA  26268.84335480  .00000494  00000+0  10820-3 0  9990
2 34409  74.0612 121.3215 0079041 122.4850 251.1658 14.58486669933785
COSMOS 2251 DEB         
1 34412U 93036RD  26269.08117060  .00002084  00000+0  44548-3 0  9994
2 34412  73.9455 143.0043 0185208 174.2391 186.0963 14.49306822918117
COSMOS 2251 DEB         
1 34413U 93036RE  26269.23024685  .00001827  00000+0  67776-3 0  9994
2 34413  74.0275 101.9535 0091244 110.9934  12.0560 14.30604542912402
COSMOS 2251 DEB         
1 34420U 93036RM  26269.35053390  .00000739  00000+0  12209-3 0  9992
2 34420  74.0304 267.3694 0106119 313.7466 110.3055 14.68788304939924
COSMOS 2251 DEB         
1 34425U 93036RS  26269.60726942  .00002499  00000+0  48501-3 0  9994
2 34425  74.0171 221.9894 0028083 270.3119  89.4830 14.63537339929500
COSMOS 2251 DEB         
1 34430U 93036RX  26269.02801796  .00000651  00000+0  20957-3 0  9990
2 34430  74.0500 132.9946 0060159 133.4664 227.1518 14.40228830920902
COSMOS 2251 DEB         
1 34431U 93036RY  26268.69244347  .00000868  00000+0  34103-3 0  9994
2 34431  74.0774  15.4053 0068463 289.2736  70.1017 14.29524670912422
COSMOS 2251 DEB         
1 34432U 93036RZ  26269.15417244  .00000700  00000+0  39897-3 0  9995
2 34432  73.8272 315.6133 0183544 345.9941  75.7725 14.03546137897167
COSMOS 2251 DEB         
1 34433U 93036SA  26269.51594308  .00001412  00000+0  67800-3 0  9999
2 34433  74.0113   4.5774 0148977  76.6730 285.0973 14.14115688900166
COSMOS 2251 DEB         
1 34434U 93036SB  26268.68698861  .00005493  00000+0  31399-2 0  9992
2 34434  74.0590 240.9747 0279979 309.4691 102.7230 13.91930879879563
COSMOS 2251 DEB         
1 34446U 93036SP  26269.28381063  .00000323  00000+0  90235-4 0  9998
2 34446  74.0396 237.9169 0051996 301.5317  58.0770 14.49597102928603
COSMOS 2251 DEB         
1 34449U 93036SS  26269.28596271  .00047823  00000+0  24489-2 0  9992
2 34449  74.0304 200.4786 0023804 186.5867 332.1690 15.16122389930216
COSMOS 2251 DEB         
1 34451U 93036SU  26267.93468299  .00076839  00000+0  35967-2 0  9995
2 34451  74.0396 219.4831 0018074 182.2370 177.8749 15.19213259929482
COSMOS 2251 DEB         
1 34452U 93036SV  26269.38046586  .00014366  00000+0  64277-3 0  9992
2 34452  74.0245 302.9389 0057076 302.3981  57.1700 15.19813279950221
COSMOS 2251 DEB         
1 34454U 93036SX  26269.24647691  .00000375  00000+0  12876-3 0  9996
2 34454  74.0562 107.9819 0034415 101.1563 259.3464 14.39140480922038
COSMOS 2251 DEB         
1 34459U 93036TC  26269.24803510  .00000477  00000+0  28520-3 0  9991
2 34459  74.0768 116.9540 0190743 118.0151 244.0425 14.00844696897373
COSMOS 2251 DEB         
1 34468U 93036TM  26269.48000580  .00000482  00000+0  13267-3 0  9991
2 34468  74.0115 297.8707 0074723  11.5005 348.7839 14.48118549926262
COSMOS 2251 DEB         
1 34472U 93036TR  26269.17922925  .00000922  00000+0  72158-3 0  9991
2 34472  74.0848 345.0654 0327012  48.9397 313.9487 13.71019225876653
COSMOS 2251 DEB         
1 34474U 93036TT  26269.52593385  .00001327  00000+0  66179-3 0  9992
2 34474  74.0750 182.9355 0200417 188.3645 347.3554 14.07942480895573
COSMOS 2251 DEB         
1 34476U 93036TV  26267.12181881  .00001712  00000+0  10896-2 0  9994
2 34476  74.0084 320.5042 0302201 118.0570 245.1467 13.84246825875849
COSMOS 2251 DEB         
1 34477U 93036TW  26269.35761557  .00002841  00000+0  59797-3 0  9994
2 34477  73.9758 240.6658 0073834 357.0727 152.8126 14.58315211928165
COSMOS 2251 DEB         
1 34481U 93036UA  26269.30575613  .00000887  00000+0  32339-3 0  9991
2 34481  73.9766 246.2323 0069140 351.9863  73.3931 14.33282593915682
COSMOS 2251 DEB         
1 34482U 93036UB  26269.41641693  .00008606  00000+0  12637-2 0  9991
2 34482  74.0367  23.4648 0040951  12.4632  56.4554 14.75057025924228
COSMOS 2251 DEB         
1 34544U 93036UE  26268.96812895  .00000329  00000+0  31714-3 0  9995
2 34544  73.9122  98.8745 0381650  74.0982  73.4860 13.55054457867727
COSMOS 2251 DEB         
1 34546U 93036UG  26269.22835610  .00001200  00000+0  34054-3 0  9996
2 34546  74.0283  72.6072 0021107  79.8316  95.4739 14.46416443921812
COSMOS 2251 DEB         
1 34547U 93036UH  26268.95510604  .00006772  00000+0  95412-3 0  9993
2 34547  74.0271 258.9700 0021496 268.0095  91.8618 14.77301925927571
COSMOS 2251 DEB         
1 34553U 93036UP  26269.41417670  .00003525  00000+0  73470-3 0  9994
2 34553  74.0272   3.2748 0019107   7.4620 112.2660 14.60237635922924
COSMOS 2251 DEB         
1 34554U 93036UQ  26269.07911399  .00000453  00000+0  15670-3 0  9999
2 34554  74.0369 129.6921 0022769 127.4855  25.2953 14.38372368918863
COSMOS 2251 DEB         
1 34556U 93036US  26269.47829488  .00012450  00000+0  14352-2 0  9997
2 34556  74.0112 275.2891 0012227 274.5058 212.0411 14.85675543925925
COSMOS 2251 DEB         
1 34560U 93036UW  26267.56680774  .00006532  00000+0  90761-3 0  9996
2 34560  74.0151 302.4083 0017164 308.3705 205.2879 14.77961742924672
COSMOS 2251 DEB         
1 34563U 93036UZ  26268.05287123  .00000931  00000+0  26125-3 0  9995
2 34563  74.0394  28.7388 0012729  51.3200  64.0805 14.47319332923383
COSMOS 2251 DEB         
1 34564U 93036VA  26269.57923299  .00000472  00000+0  15444-3 0  9997
2 34564  74.0315  65.2606 0018151 102.8866  15.0825 14.41080312921520
COSMOS 2251 DEB         
1 34567U 93036VD  26269.29294366  .00000209  00000+0  98662-4 0  9997
2 34567  74.0445 359.1276 0073888   2.7672  52.6174 14.24240594912183
COSMOS 2251 DEB         
1 34569U 93036VF  26269.40886729  .00001382  00000+0  52510-3 0  9996
2 34569  73.9918  37.5975 0155685 160.7641 258.3974 14.25473012910666
COSMOS 2251 DEB         
1 34570U 93036VG  26269.23281253  .00000568  00000+0  34282-3 0  9991
2 34570  73.9562  78.0421 0190761 259.9826 277.5134 14.00336236896246
COSMOS 2251 DEB         
1 34571U 93036VH  26269.53397555  .00005428  00000+0  12794-2 0  9991
2 34571  74.0405   0.7730 0064141 325.9473  33.7580 14.53247253914699
COSMOS 2251 DEB         
1 34572U 93036VJ  26269.04253069  .00004672  00000+0  10840-2 0  9999
2 34572  74.0073 292.9927 0065725 295.8634  91.1322 14.53971350915490
COSMOS 2251 DEB         
1 34574U 93036VL  26269.19088084  .00004150  00000+0  61568-3 0  9995
2 34574  74.0672 204.4783 0063423 152.8675 274.4433 14.74021544930103
COSMOS 2251 DEB         
1 34576U 93036VN  26269.18476383  .00001545  00000+0  34999-3 0  9992
2 34576  74.0330 312.8185 0007996 358.0605  58.8289 14.56978686926513
COSMOS 2251 DEB         
1 34579U 93036VR  26269.45226209  .00000851  00000+0  24523-3 0  9996
2 34579  74.0528  47.8687 0026208  44.5381  12.6047 14.46032630923327
COSMOS 2251 DEB         
1 34582U 93036VU  26268.64390835  .00001227  00000+0  35988-3 0  9992
2 34582  74.0163  98.3315 0048475 141.1492 219.3167 14.44258147920880
COSMOS 2251 DEB         
1 34588U 93036WA  26269.63215861  .00000762  00000+0  23664-3 0  9994
2 34588  74.0405  94.4498 0017962  80.6916 347.0042 14.42692032921019
COSMOS 2251 DEB         
1 34589U 93036WB  26269.03015721  .00000415  00000+0  29639-3 0  9995
2 34589  73.9234 286.2916 0248583 174.2632 216.8366 13.86515529886939
COSMOS 2251 DEB         
1 34590U 93036WC  26268.35715486  .00000270  00000+0  67481-4 0  9993
2 34590  74.0430 140.2216 0069612 197.9260 279.9328 14.55105243932896
COSMOS 2251 DEB         
1 34609U 93036WE  26267.52693609  .00000822  00000+0  34293-3 0  9991
2 34609  73.7317 303.9443 0139455 118.5689   8.3186 14.22682820906953
COSMOS 2251 DEB         
1 34610U 93036WF  26268.99749594  .00001400  00000+0  71862-3 0  9996
2 34610  74.0157 117.9134 0179639 183.1690 176.8328 14.08274897896029
COSMOS 2251 DEB         
1 34611U 93036WG  26269.37063838  .00007074  00000+0  10751-2 0  9992
2 34611  74.0495 261.9845 0023795 235.0427 194.3039 14.74006216926232
COSMOS 2251 DEB         
1 34613U 93036WJ  26269.27958598  .00001700  00000+0  65445-3 0  9990
2 34613  73.9609 115.6866 0108708 242.9805 236.9984 14.27924324905654
COSMOS 2251 DEB         
1 34614U 93036WK  26266.22869353  .00004244  00000+0  16236-2 0  9992
2 34614  73.8739 189.3413 0180472 131.9326  26.7913 14.22376317888067
COSMOS 2251 DEB         
1 34615U 93036WL  26269.26479617  .00000832  00000+0  78155-3 0  9998
2 34615  74.0065 192.9284 0397269  40.6047 110.5481 13.52526986867025
COSMOS 2251 DEB         
1 34619U 93036WQ  26269.55248151  .00000589  00000+0  10847-3 0  9994
2 34619  74.0467   6.5251 0092358  26.8358 333.7544 14.65273517935132
COSMOS 2251 DEB         
1 34620U 93036WR  26269.03856646  .00006775  00000+0  15529-2 0  9997
2 34620  74.0499  38.6223 0074239   4.9824 355.2059 14.54054597909973
COSMOS 2251 DEB         
1 34622U 93036WT  26269.12788385  .00001154  00000+0  49494-3 0  9998
2 34622  74.0405 150.9382 0106383 166.4952 345.3439 14.22885035905464
COSMOS 2251 DEB         
1 34626U 93036WX  26268.72602816  .00003174  00000+0  47523-3 0  9996
2 34626  74.0447 124.4838 0027731 144.1035 288.5564 14.74862371933722
COSMOS 2251 DEB         
1 34634U 93036XF  26269.59004575  .00000928  00000+0  21284-3 0  9999
2 34634  74.0508 209.6107 0046655 242.6772 293.0068 14.56399578929710
COSMOS 2251 DEB         
1 34635U 93036XG  26269.29232848  .00004803  00000+0  77279-3 0  9994
2 34635  74.0422 233.3082 0031528 230.8475 197.7556 14.71497232774458
COSMOS 2251 DEB         
1 34637U 93036XJ  26269.09983834  .00001994  00000+0  39671-3 0  9994
2 34637  74.0460 272.1520 0051711 268.0390 156.9588 14.61963020927246
COSMOS 2251 DEB         
1 34641U 93036XN  26269.20596479  .00002305  00000+0  55708-3 0  9993
2 34641  73.8351 252.6921 0013651 118.6529 254.8056 14.53650515924316
COSMOS 2251 DEB         
1 34642U 93036XP  26268.55346947  .00001583  00000+0  90989-3 0  9991
2 34642  74.0037 202.5633 0207514 317.0413 221.3018 13.99882299893053
COSMOS 2251 DEB         
1 34671U 93036XR  26269.40633453  .00005609  00000+0  91781-3 0  9993
2 34671  74.0245 296.8394 0014583 302.3735 118.7638 14.70975485925224
COSMOS 2251 DEB         
1 34672U 93036XS  26267.36092743  .00000319  00000+0  11681-3 0  9992
2 34672  74.0328 140.6582 0024048 149.1277 327.8728 14.36737345692796
COSMOS 2251 DEB         
1 34678U 93036XY  26269.59398226  .00000001  00000+0  10491-4 0  9997
2 34678  74.0378 202.3522 0025513 186.1867 229.5093 14.30101877914947
COSMOS 2251 DEB         
1 34680U 93036YA  26269.06991536  .00002499  00000+0  49354-3 0  9997
2 34680  74.0413 300.0461 0008708 305.5159  83.5417 14.62954024925277
COSMOS 2251 DEB         
1 34681U 93036YB  26269.51993696  .00008291  00000+0  89246-3 0  9997
2 34681  74.0584  78.7656 0022877  67.7316 353.9200 14.88422968935468
COSMOS 2251 DEB         
1 34682U 93036YC  26269.37124024  .00002209  00000+0  46021-3 0  9990
2 34682  74.0356 254.3548 0020057 304.9701 125.3510 14.60487368928833
COSMOS 2251 DEB         
1 34683U 93036YD  26269.33617049  .00004592  00000+0  81693-3 0  9992
2 34683  74.0252 257.8181 0021179 292.0989 134.0298 14.67263714925630
COSMOS 2251 DEB         
1 34685U 93036YF  26269.18994421  .00002188  00000+0  46606-3 0  9993
2 34685  74.0291 321.1838 0014902 344.8001  72.3576 14.59529588927232
COSMOS 2251 DEB         
1 34689U 93036YK  26267.68738913  .00004750  00000+0  22403-2 0  9997
2 34689  74.0834  84.4154 0225321  83.7679  42.4207 14.07609663883616
COSMOS 2251 DEB         
1 34721U 93036YP  26269.06549984  .00001551  00000+0  91406-3 0  9992
2 34721  73.9222 187.3408 0214562  68.8549 306.2490 13.97842250891637
COSMOS 2251 DEB         
1 34722U 93036YQ  26269.48482936  .00000809  00000+0  39812-3 0  9990
2 34722  73.8716 182.6339 0161891  53.0906  58.7016 14.12548149903078
COSMOS 2251 DEB         
1 34726U 93036YU  26269.50201219  .00000923  00000+0  19400-3 0  9998
2 34726  74.0275 156.8696 0044158 233.7349 125.9734 14.60489214927023
COSMOS 2251 DEB         
1 34728U 93036YW  26260.60358744  .00002691  00000+0  42025-3 0  9991
2 34728  74.0138  68.7186 0041456 157.3514 202.9500 14.72805508929032
COSMOS 2251 DEB         
1 34729U 93036YX  26269.11615588  .00012057  00000+0  12426-2 0  9997
2 34729  74.0141 145.3676 0016184 191.7554 320.1095 14.90194668927295
COSMOS 2251 DEB         
1 34732U 93036ZA  26269.02653287  .00000255  00000+0  76205-4 0  9993
2 34732  74.0427 276.2281 0039512 352.1825  39.4628 14.47526084923006
COSMOS 2251 DEB         
1 34738U 93036ZG  26269.45720766  .00000540  00000+0  15487-3 0  9994
2 34738  74.0166 325.2510 0045413  40.2693 332.6486 14.46810130920191
COSMOS 2251 DEB         
1 34750U 93036ZU  26269.44525060  .00004355  00000+0  82547-3 0  9996
2 34750  74.1089  12.5133 0036213 246.5348 234.3587 14.64159372924382
COSMOS 2251 DEB         
1 34752U 93036ZW  26269.35173803  .00010843  00000+0  71022-3 0  9997
2 34752  74.0087 131.5885 0045750 184.7240 175.3526 15.06922511941732
COSMOS 2251 DEB         
1 34754U 93036ZY  26269.57020590  .00000411  00000+0  13598-3 0  9991
2 34754  74.0302  55.0091 0028549 103.3100  25.5534 14.40802244922788
COSMOS 2251 DEB         
1 34755U 93036ZZ  26269.20803184  .00000419  00000+0  40678-3 0  9997
2 34755  73.9240 187.7834 0404878 154.8290 355.8763 13.51014029864055
COSMOS 2251 DEB         
1 34756U 93036AAA 26269.47417743  .00000950  00000+0  76722-3 0  9998
2 34756  74.0065 350.9049 0339271 166.7854 194.2435 13.67908547873557
COSMOS 2251 DEB         
1 34758U 93036AAC 26266.24021175  .00000373  00000+0  33299-3 0  9993
2 34758  74.1064 201.2435 0386669 259.3943  96.3407 13.58661950867735
COSMOS 2251 DEB         
1 34760U 93036AAE 26269.13097370  .00000531  00000+0  24868-3 0  9995
2 34760  74.0625 149.2201 0096168 133.0218  19.1669 14.20107746907676
COSMOS 2251 DEB         
1 34761U 93036AAF 26269.48687726  .00000985  00000+0  32541-3 0  9994
2 34761  74.0282 192.0479 0037274 162.6577 197.5860 14.38951764917871
COSMOS 2251 DEB         
1 34784U 93036AAM 26269.05522206  .00001115  00000+0  22521-3 0  9996
2 34784  74.0051 133.8365 0050709 231.0550 128.6092 14.61894374927329
COSMOS 2251 DEB         
1 34790U 93036AAT 26267.95365052  .00000857  00000+0  35504-3 0  9991
2 34790  74.0509  87.9895 0099304  80.8796  45.7970 14.25390100906506
COSMOS 2251 DEB         
1 34792U 93036AAV 26269.55574397  .00002149  00000+0  47418-3 0  9998
2 34792  74.0187 342.4022 0012765 359.4389  64.7447 14.57943377918429
COSMOS 2251 DEB         
1 34793U 93036AAW 26269.28936434  .00000487  00000+0  16381-3 0  9991
2 34793  74.0006  78.9312 0051028 166.7897 250.6246 14.39004722914668
COSMOS 2251 DEB         
1 34796U 93036AAZ 26267.38118287  .00001226  00000+0  30584-3 0  9994
2 34796  74.0302  40.1795 0097723  71.9185 311.5108 14.49856404921660
COSMOS 2251 DEB         
1 34797U 93036ABA 26264.75621036  .00001479  00000+0  41604-3 0  9999
2 34797  73.9736 291.4028 0072692 335.9597  23.8171 14.45256093915017
COSMOS 2251 DEB         
1 34813U 93036ABC 26267.35429887  .00001093  00000+0  90147-3 0  9995
2 34813  73.9243  33.3230 0447950  13.8157 347.4744 13.52015636855134
COSMOS 2251 DEB         
1 34814U 93036ABD 26269.12253363  .00001178  00000+0  39253-3 0  9992
2 34814  73.8942 151.9889 0053329 338.5676 172.1943 14.37947009914629
COSMOS 2251 DEB         
1 34815U 93036ABE 26269.49668292  .00004064  00000+0  50990-3 0  9992
2 34815  74.0460  35.0738 0054231  29.7201 330.7037 14.81477175928856
COSMOS 2251 DEB         
1 34816U 93036ABF 26269.14131836  .00000298  00000+0  27531-3 0  9994
2 34816  73.8877  33.9568 0373207  46.5575 127.4282 13.58805245866863
COSMOS 2251 DEB         
1 34818U 93036ABH 26269.31173876  .00000366  00000+0  13097-3 0  9993
2 34818  74.0342 128.0231 0024152 138.8771 340.3812 14.37284951915013
COSMOS 2251 DEB         
1 34819U 93036ABJ 26269.46758166  .00004320  00000+0  76853-3 0  9994
2 34819  74.0167 307.7435 0017491 323.1035 101.9317 14.67333358924459
COSMOS 2251 DEB         
1 34823U 93036ABN 26269.02989204  .00001329  00000+0  26400-3 0  9999
2 34823  74.0381 277.8685 0154331 289.2852  69.1673 14.55983749925611
COSMOS 2251 DEB         
1 34845U 93036ABP 26266.47979448  .00000369  00000+0  11029-3 0  9992
2 34845  74.0270 336.6375 0020363  66.9148 293.4154 14.46310737915826
COSMOS 2251 DEB         
1 34846U 93036ABQ 26269.57612845  .00001483  00000+0  40044-3 0  9999
2 34846  74.0272  82.7970 0025265  82.9995 277.4037 14.48539758915700
COSMOS 2251 DEB         
1 34852U 93036ABW 26268.19590684  .00000187  00000+0  71665-4 0  9993
2 34852  74.0302  96.0573 0015834 136.3351 223.9059 14.37174546916494
COSMOS 2251 DEB         
1 34854U 93036ABY 26267.82278801  .00002134  00000+0  28571-3 0  9999
2 34854  74.0284 316.6568 0063579 352.9371   7.0901 14.78746597761083
COSMOS 2251 DEB         
1 34856U 93036ACA 26269.08983065  .00037353  00000+0  16302-2 0  9995
2 34856  74.0036 206.5628 0029517 262.8074 109.5331 15.21571931934610
COSMOS 2251 DEB         
1 34857U 93036ACB 26267.83188778  .00002325  00000+0  46895-3 0  9997
2 34857  74.0116 280.1534 0065424 331.0148  90.4814 14.60732869920768
COSMOS 2251 DEB         
1 34861U 93036ACF 26267.79130228  .03431856  16253-1  59548-2 0  9999
2 34861  73.9678 163.3115 0018652 175.7729 244.8366 16.04748491924590
COSMOS 2251 DEB         
1 34874U 93036ACM 26269.37617050  .00000981  00000+0  33119-3 0  9998
2 34874  74.0361 264.8801 0053474 223.9435 204.7361 14.37486354911761
COSMOS 2251 DEB         
1 34875U 93036ACN 26269.45821581  .00000838  00000+0  22457-3 0  9998
2 34875  74.0462 338.7465 0014998  24.8103 348.3736 14.49705477919244
COSMOS 2251 DEB         
1 34878U 93036ACR 26250.60626251  .00000597  00000+0  60162-3 0  9992
2 34878  73.9677 340.6298 0435465 272.6084 149.4472 13.44536217848860
COSMOS 2251 DEB         
1 34879U 93036ACS 26267.22736134  .00000382  00000+0  36753-3 0  9992
2 34879  73.9044 202.6660 0490997 232.5846 122.9613 13.39977633621633
COSMOS 2251 DEB         
1 34882U 93036ACV 26269.34267309  .00000550  00000+0  11080-3 0  9997
2 34882  74.0483  35.4719 0080542  89.0389 272.0005 14.62023326927270
COSMOS 2251 DEB         
1 34883U 93036ACW 26269.31876196  .00015537  00000+0  31936-2 0  9997
2 34883  74.1957 243.3518 0084720 334.8093  24.8950 14.58335040906239
COSMOS 2251 DEB         
1 34884U 93036ACX 26269.49443465  .00033177  00000+0  22870-2 0  9993
2 34884  74.0114 192.5163 0009115 215.4705 262.9273 15.05648802921151
COSMOS 2251 DEB         
1 34885U 93036ACY 26269.41502519  .00001513  00000+0  37439-3 0  9999
2 34885  74.0325   0.6572 0014831  11.3731  68.7181 14.52821773916551
COSMOS 2251 DEB         
1 34908U 93036ADD 26269.57584672  .00000900  00000+0  30182-3 0  9999
2 34908  74.0569 214.3025 0040458 164.4267 309.7666 14.38222365914169
COSMOS 2251 DEB         
1 34909U 93036ADE 26268.88166952  .00003023  00000+0  38627-3 0  9991
2 34909  74.0134 231.2105 0083606 292.3050  66.9277 14.79459595710962
COSMOS 2251 DEB         
1 34910U 93036ADF 26269.28346272  .00000127  00000+0  14675-3 0  9992
2 34910  73.8771   7.4814 0465407  77.0571 317.2879 13.38032127853709
COSMOS 2251 DEB         
1 34911U 93036ADG 26267.43866352  .00000420  00000+0  90403-4 0  9994
2 34911  74.0398  60.0672 0082586 113.8728 278.2049 14.59688963927550
COSMOS 2251 DEB         
1 34913U 93036ADJ 26267.93468957  .00000073  00000+0  35005-4 0  9991
2 34913  74.0261 117.9864 0020790 164.5968 260.1583 14.34704257692925
COSMOS 2251 DEB         
1 34918U 93036ADP 26269.29000322  .00004599  00000+0  86247-3 0  9995
2 34918  74.0675 123.1255 0025996  18.1050 104.4028 14.64824065695426
COSMOS 2251 DEB         
1 34924U 93036ADV 26268.95059769  .00002811  00000+0  55513-3 0  9990
2 34924  74.0371 260.4840 0056560 270.8021 116.0531 14.61906100919185
COSMOS 2251 DEB         
1 34944U 93036ADX 26263.17251959  .00000712  00000+0  30498-3 0  9999
2 34944  73.7471  83.9761 0219144 246.1772 111.6260 14.14840314680628
COSMOS 2251 DEB         
1 34946U 93036ADZ 26269.06084919  .00001345  00000+0  26171-3 0  9991
2 34946  74.0222 150.9361 0051106 216.0890 143.6825 14.63340085924108
COSMOS 2251 DEB         
1 34949U 93036AEC 26268.71441817  .00002031  00000+0  29039-3 0  9998
2 34949  74.0148 268.3534 0078479 339.0664  20.7301 14.75294673925920
COSMOS 2251 DEB         
1 34953U 93036AEG 26269.23854571  .00003816  00000+0  60509-3 0  9995
2 34953  74.0918 191.4808 0053333 108.8566  41.8277 14.71580776923545
COSMOS 2251 DEB         
1 34955U 93036AEJ 26267.99473167  .00006844  00000+0  45790-3 0  9995
2 34955  74.0366  21.7435 0070327  14.8182 345.5045 15.05077387943352
COSMOS 2251 DEB         
1 34962U 93036AER 26269.26440519  .00000960  00000+0  26916-3 0  9992
2 34962  74.0317  15.8645 0017560  57.8696 302.4164 14.47299227917371
COSMOS 2251 DEB         
1 34963U 93036AES 26269.24987590  .00004239  00000+0  10155-2 0  9996
2 34963  74.1662 225.1771 0040619 330.2945  29.5911 14.53312475909756
COSMOS 2251 DEB         
1 34964U 93036AET 26269.16537196  .00003130  00000+0  17143-2 0  9994
2 34964  73.9660 207.0325 0208574   2.9739 357.2579 14.01839361885043
COSMOS 2251 DEB         
1 34965U 93036AEU 26269.48307538  .00000544  00000+0  14949-3 0  9993
2 34965  74.0514 309.5049 0025728 359.3939   0.7185 14.49241613912812
COSMOS 2251 DEB         
1 34967U 93036AEW 26268.73508937  .00001436  00000+0  41291-3 0  9999
2 34967  73.9904  77.9430 0038846 158.0762 202.2069 14.45285095691023
COSMOS 2251 DEB         
1 34968U 93036AEX 26266.75541549  .00000429  00000+0  91620-4 0  9999
2 34968  74.0376  63.5710 0085454 112.6203 248.4030 14.59757394926363
COSMOS 2251 DEB         
1 34969U 93036AEY 26269.12939283  .00000541  00000+0  20253-3 0  9998
2 34969  74.0132 217.7881 0075795 281.4548  77.8097 14.32655412692524
COSMOS 2251 DEB         
1 34971U 93036AFA 26269.21905183  .00000425  00000+0  10038-3 0  9994
2 34971  73.9760  98.1141 0070688 254.9512 229.2570 14.56036941703566
COSMOS 2251 DEB         
1 34972U 93036AFB 26269.26008861  .00007515  00000+0  10437-2 0  9996
2 34972  73.9860 205.6809 0034168 285.7479 224.7056 14.77648691918911
COSMOS 2251 DEB         
1 34976U 93036AFF 26266.98373878  .00004153  00000+0  53937-3 0  9997
2 34976  74.0527 106.0182 0043462  80.6343  69.7678 14.80392175924904
COSMOS 2251 DEB         
1 34979U 93036AFJ 26269.16735825  .00006930  00000+0  83280-3 0  9996
2 34979  74.0373  59.6166 0045478  65.4258 295.1649 14.83395578924777
COSMOS 2251 DEB         
1 34990U 93036AFN 26267.83297444  .00000698  00000+0  21619-3 0  9994
2 34990  74.0428  80.6683 0015199  76.6403 283.6447 14.42971831914721
COSMOS 2251 DEB         
1 34997U 93036AFV 26267.37164040  .00002375  00000+0  61517-3 0  9990
2 34997  73.8777 132.2133 0090722  49.4517 311.4495 14.47959485748785
COSMOS 2251 DEB         
1 34998U 93036AFW 26269.18216951  .00001045  00000+0  27474-3 0  9998
2 34998  74.0116 339.4903 0019475  52.3746 337.2074 14.50263114915860
COSMOS 2251 DEB         
1 35012U 93036AFZ 26269.38842295  .00000294  00000+0  87465-4 0  9996
2 35012  74.0190 294.7495 0080326   3.5343 356.6364 14.45788257917181
COSMOS 2251 DEB         
1 35014U 93036AGB 26269.52726758  .00008910  00000+0  11634-2 0  9995
2 35014  73.9974 196.8546 0010391 268.8306  91.1680 14.80584704755890
COSMOS 2251 DEB         
1 35015U 93036AGC 26267.11739876  .00002177  00000+0  57019-3 0  9991
2 35015  73.9463  57.8592 0073411 221.8111 260.3514 14.48348788695709
COSMOS 2251 DEB         
1 35016U 93036AGD 26268.84856569  .00000516  00000+0  17590-3 0  9997
2 35016  73.9283 124.3565 0112597 338.4648  34.1164 14.35605677909029
COSMOS 2251 DEB         
1 35018U 93036AGF 26269.23356602  .00001378  00000+0  10944-2 0  9998
2 35018  73.9803 356.2030 0344194 207.5036 150.7497 13.67868191871162
COSMOS 2251 DEB         
1 35020U 93036AGH 26268.60258358  .00000400  00000+0  79459-4 0  9993
2 35020  74.0484   9.1962 0088813  49.3393 311.5450 14.63169529924331
COSMOS 2251 DEB         
1 35022U 93036AGK 26266.37478026  .00000834  00000+0  17063-3 0  9996
2 35022  74.0240 137.1828 0047725 262.6297  96.9445 14.61840726633019
COSMOS 2251 DEB         
1 35023U 93036AGL 26269.61757328  .00015332  00000+0  10619-2 0  9990
2 35023  74.0364 346.7380 0029490 351.2608  77.9172 15.05297564925989
COSMOS 2251 DEB         
1 35025U 93036AGN 26269.55740630  .00001934  00000+0  28403-3 0  9997
2 35025  73.9360 218.3198 0080336  64.8533 296.0945 14.74073231928822
COSMOS 2251 DEB         
1 35026U 93036AGP 26269.40713519  .00000148  00000+0  40591-4 0  9997
2 35026  74.0457 135.6803 0083472 177.1905 358.1197 14.53764261923237
COSMOS 2251 DEB         
1 35028U 93036AGR 26269.19840572  .00000278  00000+0  66001-4 0  9993
2 35028  74.0357  85.3664 0082633 147.6597 330.6102 14.56769567924713
COSMOS 2251 DEB         
1 35031U 93036AGU 26269.22105459  .00000284  00000+0  10126-3 0  9992
2 35031  74.0358  89.4899 0018131 117.6475 242.6523 14.38543475694178
COSMOS 2251 DEB         
1 35032U 93036AGV 26269.44258281  .00002881  00000+0  58036-3 0  9996
2 35032  73.8511 172.1676 0065320 321.6358 154.5076 14.60692006918723
COSMOS 2251 DEB         
1 35033U 93036AGW 26267.93346086  .00001356  00000+0  34086-3 0  9995
2 35033  74.0284 357.3968 0013618  28.8739 331.3174 14.52167896700804
COSMOS 2251 DEB         
1 35038U 93036AHB 26269.26879721  .00001811  00000+0  70869-3 0  9990
2 35038  74.1035 245.1674 0109707 158.5181 264.5425 14.26934126896686
COSMOS 2251 DEB         
1 35043U 93036AHG 26269.52137759  .00032186  00000+0  30410-2 0  9999
2 35043  73.9453 191.4869 0070075 324.3982  35.2534 14.91697887716899
COSMOS 2251 DEB         
1 35045U 93036AHJ 26264.34724291  .00000543  00000+0  33099-3 0  9998
2 35045  73.7164 273.3636 0178114 113.3193 248.6794 14.00895662886003
COSMOS 2251 DEB         
1 35060U 93036AHP 26268.15643230  .00000610  00000+0  19333-3 0  9991
2 35060  74.0358  73.5186 0017443  92.6999 267.6154 14.42104977913706
COSMOS 2251 DEB         
1 35061U 93036AHQ 26268.83656753  .00002152  00000+0  36266-3 0  9998
2 35061  74.0418 110.3262 0040069 149.5611 210.7899 14.69656265927905
COSMOS 2251 DEB         
1 35062U 93036AHR 26269.40385906  .00002673  00000+0  10591-2 0  9992
2 35062  74.0778 296.3615 0127163 227.4859 131.5493 14.25019167895947
COSMOS 2251 DEB         
1 35065U 93036AHU 26268.00685814  .00000866  00000+0  24771-3 0  9999
2 35065  74.0214  19.5641 0018576  75.7071 284.6148 14.46456297724890
COSMOS 2251 DEB         
1 35071U 93036AJA 26269.40816746  .00008085  00000+0  48756-3 0  9991
2 35071  73.9287 298.8073 0059265 125.2218 235.4542 15.09398603718699
COSMOS 2251 DEB         
1 35073U 93036AJC 26261.24800236  .00062540  00000+0  21795-2 0  9993
2 35073  73.9790 107.6425 0017606 155.1383 205.0671 15.29200672717118
COSMOS 2251 DEB         
1 35284U 93036AJN 26268.22961868  .00000261  00000+0  93751-4 0  9996
2 35284  74.0466  96.8088 0015747 107.8626  10.7924 14.38560212696459
COSMOS 2251 DEB         
1 35287U 93036AJR 26269.01358536  .00000201  00000+0  77186-4 0  9997
2 35287  74.0278 108.1647 0017480 141.7751  10.2158 14.36561983910179
COSMOS 2251 DEB         
1 35288U 93036AJS 26269.42786966  .00004518  00000+0  77772-3 0  9990
2 35288  73.9497 176.9309 0035685 337.1716  22.7865 14.68463790920972
COSMOS 2251 DEB         
1 35290U 93036AJU 26269.50979410  .00014082  00000+0  15189-2 0  9990
2 35290  74.0020 207.0284 0008639 247.3724 112.6544 14.88396987922292
COSMOS 2251 DEB         
1 35433U 93036AKB 26269.06920520  .00000403  00000+0  14975-3 0  9993
2 35433  74.0354 171.8129 0026357 162.7805 260.1123 14.35106850907020
COSMOS 2251 DEB         
1 35434U 93036AKC 26267.76530272  .00000847  00000+0  34869-3 0  9996
2 35434  74.0397  56.9886 0086131  59.0572 301.9005 14.26427144901957
COSMOS 2251 DEB         
1 35435U 93036AKD 26263.28691957  .00008152  00000+0  93114-3 0  9993
2 35435  74.0062 266.1353 0014381 288.0042  84.6825 14.86126649917128
COSMOS 2251 DEB         
1 35439U 93036AKH 26267.25968269  .00001167  00000+0  71196-3 0  9996
2 35439  74.0206   4.9621 0237303 110.0126 252.6725 13.93978367879386
COSMOS 2251 DEB         
1 35440U 93036AKJ 26268.53302959  .00001662  00000+0  27225-3 0  9992
2 35440  74.0168  11.1839 0067083  80.5533 280.3213 14.70126225729787
COSMOS 2251 DEB         
1 35441U 93036AKK 26265.92515207  .00003303  00000+0  59736-3 0  9991
2 35441  74.1313 114.8819 0031890 283.5290  76.2327 14.66467988915911
COSMOS 2251 DEB         
1 35442U 93036AKL 26268.92367861  .00023763  00000+0  21190-2 0  9990
2 35442  74.0199 243.4044 0007440 245.0972 114.9439 14.95890928916322
COSMOS 2251 DEB         
1 35443U 93036AKM 26265.94685825  .00380634  00000+0  55587-2 0  9993
2 35443  73.9555  94.9866 0032728 149.3411 210.9726 15.53676055911913
COSMOS 2251 DEB         
1 35445U 93036AKP 26268.96651904  .00006433  00000+0  11010-2 0  9996
2 35445  74.0313 110.3389 0137430 126.0758 235.3230 14.62933829915250
COSMOS 2251 DEB         
1 35446U 93036AKQ 26267.95818250  .00000223  00000+0  56991-4 0  9994
2 35446  74.0459 136.8920 0075768 183.4005 176.6654 14.54858420921701
COSMOS 2251 DEB         
1 35448U 93036AKS 26268.96981835  .00001903  00000+0  43816-3 0  9995
2 35448  73.8996 261.0539 0010088 352.8951   7.2067 14.56074646915138
COSMOS 2251 DEB         
1 35453U 93036AKX 26268.20787516  .00001348  00000+0  43340-3 0  9993
2 35453  74.0077 211.3391 0069297 275.0808  84.2439 14.38996639903381
COSMOS 2251 DEB         
1 35455U 93036AKZ 26269.25936199  .00002538  00000+0  60634-3 0  9991
2 35455  74.0242 114.0593 0099404 147.9037 212.8231 14.51186386907124
COSMOS 2251 DEB         
1 35456U 93036ALA 26265.73555295  .00005181  00000+0  76290-3 0  9997
2 35456  73.9477 281.7994 0056002  61.6555 299.0249 14.74569477700559
COSMOS 2251 DEB         
1 35459U 93036ALD 26269.02864678  .00000492  00000+0  17192-3 0  9990
2 35459  73.8734  13.1131 0017785 262.2304  97.6830 14.37859010624909
COSMOS 2251 DEB         
1 35462U 93036ALG 26267.28122358  .00001789  00000+0  66380-3 0  9995
2 35462  74.0321 109.2135 0083861  76.5341 284.5138 14.30961177704632
COSMOS 2251 DEB         
1 35465U 93036ALK 26265.32581435  .00000775  00000+0  22456-3 0  9996
2 35465  74.0004  27.7816 0062714 121.6478 239.0819 14.44993863913376
COSMOS 2251 DEB         
1 35469U 93036ALP 26269.51074201  .00000236  00000+0  66268-4 0  9995
2 35469  74.0170 202.8476 0078018 286.6006  72.6597 14.50028559922827
COSMOS 2251 DEB         
1 35475U 93036ALV 26269.54709338  .00006912  00000+0  10266-2 0  9993
2 35475  74.0214 324.5774 0021551 323.9057  36.0660 14.75038011698542
COSMOS 2251 DEB         
1 35476U 93036ALW 26268.60269723  .00010671  00000+0  13417-2 0  9997
2 35476  73.9747 214.3115 0013560 149.7465  24.7405 14.82102055921295
COSMOS 2251 DEB         
1 35580U 93036ALX 26267.75271905  .00000857  00000+0  57396-3 0  9993
2 35580  73.8999  51.8221 0280834   2.7329 357.5249 13.84938871662152
COSMOS 2251 DEB         
1 35583U 93036AMA 26267.55117496  .00000514  00000+0  47127-3 0  9999
2 35583  73.9137 108.5641 0386607  79.7649 284.6812 13.55920753862853
COSMOS 2251 DEB         
1 35585U 93036AMC 26269.22487649  .00001345  00000+0  10023-2 0  9994
2 35585  73.9699 228.0790 0303379  81.1985 342.2127 13.76101902680179
COSMOS 2251 DEB         
1 35586U 93036AMD 26267.53163258  .00000573  00000+0  53960-3 0  9994
2 35586  74.0219 204.5419 0402474  19.6918  93.8397 13.52358734642453
COSMOS 2251 DEB         
1 35587U 93036AME 26269.24904457  .00001352  00000+0  20318-3 0  9996
2 35587  74.0029 218.0861 0100807 332.7787  26.8120 14.72241046705766
COSMOS 2251 DEB         
1 35593U 93036AML 26269.31096913  .00001284  00000+0  51132-3 0  9992
2 35593  74.0833 130.3163 0103435  65.4856 295.7034 14.26676360891659
COSMOS 2251 DEB         
1 35594U 93036AMM 26267.27810245  .00010021  00000+0  91813-3 0  9997
2 35594  73.8024 245.4976 0030365 295.8242  63.9809 14.94670188924433
COSMOS 2251 DEB         
1 35602U 93036AMV 26269.01900175  .00023406  00000+0  42055-3 0  9998
2 35602  73.9884 278.1525 0069967 266.8269 123.3915 15.47014473945180
COSMOS 2251 DEB         
1 35606U 93036AMZ 26269.41505775  .00000322  00000+0  33558-3 0  9993
2 35606  73.8076 272.1774 0450321  72.1394 292.8280 13.41547073648974
COSMOS 2251 DEB         
1 35611U 93036ANE 26269.16622551  .00010339  00000+0  13715-2 0  9994
2 35611  74.0203 335.3666 0021596 335.3636  24.6506 14.79755289915339
COSMOS 2251 DEB         
1 35614U 93036ANH 26269.30588853  .00002615  00000+0  42986-3 0  9990
2 35614  73.9561 128.6606 0073300 272.8864  86.3919 14.69401557919503
COSMOS 2251 DEB         
1 35645U 93036ANL 26267.42679573  .00003649  00000+0  95831-3 0  9990
2 35645  73.9615 271.3271 0067522 357.6469   2.4362 14.48182922909041
COSMOS 2251 DEB         
1 35646U 93036ANM 26269.14310169  .00000366  00000+0  37509-3 0  9996
2 35646  73.8701 319.7599 0457946  20.2643   9.6763 13.41216531857117
COSMOS 2251 DEB         
1 35647U 93036ANN 26267.27774600  .00001128  00000+0  32854-3 0  9998
2 35647  74.0205 122.8214 0046822 155.2309 205.1111 14.44731711717865
COSMOS 2251 DEB         
1 35650U 93036ANR 26267.05849860  .00010114  00000+0  10101-2 0  9994
2 35650  74.0435 169.9317 0015832 165.8035 257.9276 14.91495366918786
COSMOS 2251 DEB         
1 35660U 93036APB 26268.40749811  .00000777  00000+0  20442-3 0  9994
2 35660  74.0402 314.7339 0016969  25.7324 347.2115 14.50681235700277
COSMOS 2251 DEB         
1 35661U 93036APC 26269.60351781  .00005162  00000+0  50450-3 0  9998
2 35661  74.0108 224.1600 0085740 253.6894 105.4846 14.89885609921513
COSMOS 2251 DEB         
1 35663U 93036APE 26266.74761466  .00003733  00000+0  63789-3 0  9998
2 35663  74.0149 293.4655 0009824 293.1415  66.8720 14.69247698775635
COSMOS 2251 DEB         
1 35667U 93036APJ 26268.46074884  .00002773  00000+0  55429-3 0  9999
2 35667  74.0551 312.4538 0021220 297.1652  62.7351 14.62229070749913
COSMOS 2251 DEB         
1 35668U 93036APK 26265.03978330  .00000593  00000+0  11220-3 0  9998
2 35668  74.0456  36.3704 0080876  68.9552 292.0241 14.64654815917947
COSMOS 2251 DEB         
1 35669U 93036APL 26267.74377944  .00000788  00000+0  69328-3 0  9991
2 35669  73.8590  52.5675 0384906 114.9643 249.1967 13.57664046646704
COSMOS 2251 DEB         
1 35670U 93036APM 26269.06408917  .00016437  00000+0  12382-2 0  9990
2 35670  73.8912 196.6439 0027355  97.8813 262.5481 15.02182700920318
COSMOS 2251 DEB         
1 35671U 93036APN 26268.35451771  .00000453  00000+0  12659-3 0  9997
2 35671  74.0149 261.7356 0040096   2.7924  63.6308 14.48692819909132
COSMOS 2251 DEB         
1 35674U 93036APR 26269.04335625  .00003767  00000+0  79639-3 0  9998
2 35674  74.0568 132.4888 0092204 105.9192 255.2157 14.57003389902924
COSMOS 2251 DEB         
1 35701U 93036APW 26269.41352193  .00002206  00000+0  15167-2 0  9991
2 35701  74.0058 178.1514 0288181 324.9138  33.3293 13.81862837661314
COSMOS 2251 DEB         
1 35703U 93036APY 26269.03121112  .00005232  00000+0  47341-3 0  9998
2 35703  74.0409 185.6680 0062612 181.2616 178.8421 14.94167849709022
COSMOS 2251 DEB         
1 35705U 93036AQA 26262.80942257  .00009095  00000+0  11380-2 0  9993
2 35705  74.2697 311.9916 0019187 180.6654 179.4503 14.82262582900786
COSMOS 2251 DEB         
1 35706U 93036AQB 26267.44455910  .00000894  00000+0  73195-3 0  9995
2 35706  73.8866 310.4171 0346109 308.1651  48.8740 13.66611624659642
COSMOS 2251 DEB         
1 35711U 93036AQG 26266.04318295  .00000585  00000+0  11101-3 0  9996
2 35711  74.0463  34.5816 0082955  62.6445 298.3135 14.64441068919329
COSMOS 2251 DEB         
1 35716U 93036AQM 26269.61305946  .00000418  00000+0  88011-4 0  9996
2 35716  73.9961   3.1713 0088169 135.6152 289.5835 14.60394920918296
COSMOS 2251 DEB         
1 35717U 93036AQN 26259.19988352  .00002672  00000+0  82407-3 0  9993
2 35717  74.1583  69.0378 0075051 209.6709 150.0181 14.40255847780929
COSMOS 2251 DEB         
1 35718U 93036AQP 26267.76013698  .00005328  00000+0  83384-3 0  9994
2 35718  74.0294 294.2110 0013790 276.3531  83.6071 14.72940529700463
COSMOS 2251 DEB         
1 35721U 93036AQS 26252.14038428  .00003318  00000+0  10168-2 0  9998
2 35721  73.9493  38.8727 0143480 125.4469 236.0178 14.36310157616697
COSMOS 2251 DEB         
1 35724U 93036AQV 26269.28905130  .00000600  00000+0  13190-3 0  9997
2 35724  74.0301 115.1264 0060503 196.9275 162.9873 14.58748727917210
COSMOS 2251 DEB         
1 35759U 93036ARD 26268.59203085  .00000911  00000+0  16647-3 0  9993
2 35759  74.0390  23.9860 0074825  69.2311 291.6853 14.65654618703370
COSMOS 2251 DEB         
1 35764U 93036ARJ 26268.33704024  .00005963  00000+0  77293-3 0  9996
2 35764  74.0214 139.1611 0025065 186.7792 173.3050 14.80809084702858
COSMOS 2251 DEB         
1 35771U 93036ARR 26269.14254762  .00007300  00000+0  28879-2 0  9995
2 35771  74.1544 162.8284 0202734  24.7082 336.3607 14.18482777869293
COSMOS 2251 DEB         
1 35773U 93036ART 26269.09653176  .00001399  00000+0  27198-3 0  9999
2 35773  74.0062 148.9679 0046964 236.0034 123.6668 14.63462507910412
COSMOS 2251 DEB         
1 35777U 93036ARX 26268.23035016  .00000448  00000+0  46219-3 0  9994
2 35777  73.7693 224.9363 0448060  77.2130 348.0967 13.41555755835269
COSMOS 2251 DEB         
1 35784U 93036ASE 26262.33635363  .00000474  00000+0  12688-3 0  9990
2 35784  74.0357 282.5627 0041730 339.5729  20.3760 14.50533512697740
COSMOS 2251 DEB         
1 35786U 93036ASG 26268.22108339  .00004048  00000+0  69067-3 0  9998
2 35786  74.0122 209.4929 0036732 264.1649  95.5333 14.68869901776117
COSMOS 2251 DEB         
1 35789U 93036ASK 26269.30464032  .00000178  00000+0  69207-4 0  9993
2 35789  74.0365 116.4560 0047419 148.0908 212.3134 14.36149939653556
COSMOS 2251 DEB         
1 35793U 93036ASP 26264.23011868  .00007181  00000+0  83961-3 0  9993
2 35793  74.0366 221.6931 0008223 240.9078 183.0181 14.85245371699831
COSMOS 2251 DEB         
1 35824U 93036ASW 26269.39060958  .00001322  00000+0  85441-3 0  9990
2 35824  73.8415 273.8539 0254335 307.9014  49.9356 13.89297126882210
COSMOS 2251 DEB         
1 35825U 93036ASX 26266.63023106  .00000531  00000+0  39071-3 0  9998
2 35825  74.1122  33.8283 0352034  61.7318 301.8855 13.71858614864149
COSMOS 2251 DEB         
1 35829U 93036ATB 26269.28991019  .00011710  00000+0  14464-2 0  9992
2 35829  74.0203 251.9273 0010939 254.3615 105.6356 14.82845111920295
COSMOS 2251 DEB         
1 35830U 93036ATC 26266.80753212  .00001510  00000+0  59508-3 0  9996
2 35830  73.8587 106.5972 0121519  20.8041 339.7989 14.26059005653254
COSMOS 2251 DEB         
1 35834U 93036ATG 26268.02376451  .00000507  00000+0  26895-3 0  9990
2 35834  73.9326 155.0046 0110776 255.1133 166.7375 14.13168263703075
COSMOS 2251 DEB         
1 35835U 93036ATH 26268.39267669  .00000736  00000+0  49418-3 0  9991
2 35835  74.0620 146.0532 0292858 221.6997 136.1474 13.83653715656630
COSMOS 2251 DEB         
1 35836U 93036ATJ 26266.55112250  .00005032  00000+0  72085-3 0  9993
2 35836  74.0325 336.7798 0023944 323.2989  36.6544 14.76645730677178
COSMOS 2251 DEB         
1 35837U 93036ATK 26269.20456315  .00002444  00000+0  16893-2 0  9990
2 35837  73.7235  88.4419 0410570 328.9100 146.0064 13.65732690618984
COSMOS 2251 DEB         
1 35840U 93036ATN 26268.58054345  .00004169  00000+0  12278-2 0  9990
2 35840  73.9330 345.1726 0109526 186.6665 173.3041 14.40513097894189
COSMOS 2251 DEB         
1 35883U 93036ATW 26268.23594932  .00000752  00000+0  18865-3 0  9993
2 35883  74.0212 250.7839 0084268 307.8787  64.4221 14.51095390665415
COSMOS 2251 DEB         
1 35884U 93036ATX 26269.01431180  .00002221  00000+0  85807-3 0  9999
2 35884  73.9887 174.9618 0111505 254.6180 104.2626 14.27388864264540
COSMOS 2251 DEB         
1 35885U 93036ATY 26269.27366640  .00000447  00000+0  15613-3 0  9992
2 35885  74.0264 125.1803 0023485 141.5913 218.6918 14.37923453691484
COSMOS 2251 DEB         
1 35888U 93036AUB 26269.44805608  .00000920  00000+0  19812-3 0  9997
2 35888  74.0328 168.5426 0050442 227.6322 132.0568 14.59217848904691
COSMOS 2251 DEB         
1 35890U 93036AUD 26262.17695963  .00004284  00000+0  86239-3 0  9998
2 35890  73.9341  64.6544 0053480 127.1130 233.4941 14.60959135692420
COSMOS 2251 DEB         
1 35891U 93036AUE 26267.44707967  .00488532  90626-4  16982-2 0  9999
2 35891  73.9659 182.4652 0022388 205.6601 154.3524 15.88836662716548
COSMOS 2251 DEB         
1 35895U 93036AUJ 26269.23014262  .00001488  00000+0  81233-3 0  9996
2 35895  74.0455 208.2746 0205859 239.7787 118.2826 14.02749325630428
COSMOS 2251 DEB         
1 35898U 93036AUM 26268.72839966  .00009051  00000+0  71389-3 0  9993
2 35898  73.9871  75.2582 0075995 146.3740 227.0586 14.98556027711049
COSMOS 2251 DEB         
1 35902U 93036AUR 26263.18973666  .00001404  00000+0  54445-3 0  9998
2 35902  73.9803  83.1518 0101954 134.6239 226.3283 14.28062290651467
COSMOS 2251 DEB         
1 35905U 93036AUU 26268.60395392  .00003912  00000+0  27488-3 0  9990
2 35905  74.0331 346.4751 0084057 349.3960  10.5451 15.02641283928872
COSMOS 2251 DEB         
1 35956U 93036AUW 26268.97977430  .00006334  00000+0  27211-2 0  9999
2 35956  74.0720 107.8453 0226209 115.7308 246.7373 14.12074630659127
COSMOS 2251 DEB         
1 35959U 93036AUZ 26269.33681536  .00000190  00000+0  76796-4 0  9990
2 35959  74.0321 145.5034 0022075 162.0636 198.1301 14.34291568890511
COSMOS 2251 DEB         
1 35961U 93036AVB 26269.11328329  .00001332  00000+0  69973-3 0  9994
2 35961  73.9268  58.1302 0186287 293.3450  64.8183 14.06665932667212
COSMOS 2251 DEB         
1 35975U 93036AVR 26269.10732498  .00001908  00000+0  72288-3 0  9996
2 35975  74.0473 169.4486 0112007 180.0405 180.0756 14.28406501682030
COSMOS 2251 DEB         
1 35979U 93036AVV 26264.14556936  .00003268  00000+0  45295-3 0  9999
2 35979  74.0088  44.5064 0057088 106.8952  67.1789 14.77282505928002
COSMOS 2251 DEB         
1 35980U 93036AVW 26269.39731756  .00004213  00000+0  82707-3 0  9998
2 35980  73.9092 288.6665 0052139 355.5046   4.5643 14.62160988656875
COSMOS 2251 DEB         
1 35982U 93036AVY 26268.42779314  .00001420  00000+0  26823-3 0  9999
2 35982  74.0565 157.4027 0064065 151.6459 208.8221 14.64106664903603
COSMOS 2251 DEB         
1 35987U 93036AWD 26258.12076324  .00001649  00000+0  47800-3 0  9992
2 35987  73.9990 171.4771 0049519 231.8943 127.7744 14.44537964650546
COSMOS 2251 DEB         
1 35989U 93036AWF 26259.40091234  .00000274  00000+0  10026-3 0  9996
2 35989  74.0366 133.1176 0022012 152.7887 207.4425 14.37352523911683
COSMOS 2251 DEB         
1 35993U 93036AWK 26261.96807154  .00001572  00000+0  28376-3 0  9990
2 35993  74.0134 151.8984 0030265 265.5929  94.1783 14.67099263645509
COSMOS 2251 DEB         
1 35996U 93036AWN 26268.57090129  .00009439  00000+0  47332-3 0  9996
2 35996  74.0298 228.7165 0084585 245.6704 113.5643 15.14293404766615
COSMOS 2251 DEB         
1 35997U 93036AWP 26268.61170552  .00001525  00000+0  37887-3 0  9993
2 35997  74.0454   7.0424 0015303   7.5719 352.5671 14.52610530750487
COSMOS 2251 DEB         
1 36000U 93036AWS 26265.25070201  .00023101  00000+0  16083-2 0  9994
2 36000  73.9825 230.7327 0030939 270.1273  89.6371 15.04992976644151
COSMOS 2251 DEB         
1 36005U 93036AWX 26269.36968891  .00000361  00000+0  10343-3 0  9993
2 36005  74.0242 275.6901 0061438 340.1573  19.7196 14.47650985917469
COSMOS 2251 DEB         
1 36008U 93036AXA 26251.36453361  .00003287  00000+0  11607-2 0  9991
2 36008  74.0060 140.8807 0163105 222.2979 136.5499 14.27911991644693
COSMOS 2251 DEB         
1 36045U 93036AXG 26267.19006487  .00006748  00000+0  96150-3 0  9995
2 36045  73.7598 213.1349 0044623 182.5404 177.5550 14.76305552125933
COSMOS 2251 DEB         
1 36046U 93036AXH 26265.27274450  .00001451  00000+0  26109-3 0  9993
2 36046  74.0128  89.5194 0056324 165.7149   8.8773 14.66572262681584
COSMOS 2251 DEB         
1 36047U 93036AXJ 26269.24726401  .00040812  00000+0  21874-2 0  9990
2 36047  74.0126 104.2299 0008405  95.6030 264.6124 15.14766411702672
COSMOS 2251 DEB         
1 36048U 93036AXK 26269.06954994  .00000395  00000+0  13815-3 0  9990
2 36048  74.0554 130.7019 0025712 113.6559  37.6941 14.38212008896323
COSMOS 2251 DEB         
1 36049U 93036AXL 26269.04317782  .00003144  00000+0  59445-3 0  9991
2 36049  74.0283 287.4781 0013974 297.7829  62.1921 14.64776700895682
COSMOS 2251 DEB         
1 36050U 93036AXM 26269.50456355  .00005922  00000+0  38966-3 0  9995
2 36050  74.0315 325.8171 0082190 327.6365  31.9796 15.05003944713596
COSMOS 2251 DEB         
1 36053U 93036AXQ 26269.39531025  .00004289  00000+0  88267-3 0  9997
2 36053  73.8710 318.9630 0029152 212.1400 147.7990 14.60604182916403
COSMOS 2251 DEB         
1 36058U 93036AXV 26264.18424037  .00001318  00000+0  27757-3 0  9995
2 36058  74.0209 214.5260 0046869 275.7137  83.8686 14.59906394702313
COSMOS 2251 DEB         
1 36060U 93036AXX 26268.17379456  .00000637  00000+0  20001-3 0  9993
2 36060  74.0280  63.1108 0014345  94.5887 265.6908 14.42521192891392
COSMOS 2251 DEB         
1 36061U 93036AXY 26266.52945958  .00000354  00000+0  13464-3 0  9998
2 36061  74.0243 198.2881 0039604 219.7465 140.0784 14.34104537691867
COSMOS 2251 DEB         
1 36073U 93036AYL 26268.01937446  .00000307  00000+0  11585-3 0  9990
2 36073  74.0323 157.6274 0024527 162.0110 198.1916 14.35242594743146
COSMOS 2251 DEB         
1 36074U 93036AYM 26269.40981290  .00001711  00000+0  48803-3 0  9994
2 36074  73.9902 163.3541 0044354 190.0062 170.0217 14.45420336900642
COSMOS 2251 DEB         
1 36366U 93036AYT 26265.93847419  .00002147  00000+0  72376-3 0  9992
2 36366  74.0629 113.3116 0087053  72.5214 288.5430 14.35478067903641
COSMOS 2251 DEB         
1 36367U 93036AYU 26265.26097051  .00001401  00000+0  92237-3 0  9998
2 36367  74.0998 112.7684 0262020 117.7621 245.0340 13.87223471614603
COSMOS 2251 DEB         
1 36369U 93036AYW 26269.21971418  .00008365  00000+0  11419-2 0  9995
2 36369  74.0274 227.2912 0015093 241.0674 118.8988 14.78676584901650
COSMOS 2251 DEB         
1 36371U 93036AYY 26269.48205609  .00007375  00000+0  10661-2 0  9997
2 36371  74.0116 319.3448 0011828 292.9827  67.0099 14.76299002756843
COSMOS 2251 DEB         
1 36379U 93036AZG 26269.34323095  .00000412  00000+0  14770-3 0  9991
2 36379  74.0115 137.8044 0046649 199.6605 278.5050 14.36457211689576
COSMOS 2251 DEB         
1 36385U 93036AZN 26267.54878942  .00005854  00000+0  70974-3 0  9997
2 36385  73.9680 312.8544 0127740  57.2314 304.1093 14.78105962893182
COSMOS 2251 DEB         
1 36420U 93036AZT 26268.32864297  .00000233  00000+0  87021-4 0  9990
2 36420  74.0350 108.5375 0017679 132.4625  42.0519 14.37108613891539
COSMOS 2251 DEB         
1 36430U 93036BAD 26268.47618941  .00000489  00000+0  19665-3 0  9991
2 36430  74.0040 307.8087 0095339  29.8247 330.8286 14.28249446686506
COSMOS 2251 DEB         
1 36437U 93036BAL 26269.50891543  .00006859  00000+0  10136-2 0  9994
2 36437  73.9415 189.8039 0019137 340.5823  19.4619 14.75291389702893
COSMOS 2251 DEB         
1 36439U 93036BAN 26268.76259042  .00000756  00000+0  71163-3 0  9993
2 36439  73.9687 298.3421 0428025 215.5359 141.6543 13.48563540624811
COSMOS 2251 DEB         
1 36441U 93036BAQ 26254.04170287  .00004920  00000+0  26298-3 0  9991
2 36441  73.8344 141.3205 0102799 184.1568 175.8783 15.10880745910734
COSMOS 2251 DEB         
1 36451U 93036BBA 26258.52384170  .00001671  00000+0  67851-3 0  9997
2 36451  73.9525 197.9457 0183507 321.0354  37.7681 14.19719852881529
COSMOS 2251 DEB         
1 36453U 93036BBC 26266.44881112  .00001748  00000+0  40513-3 0  9998
2 36453  73.9259 330.8381 0067380 172.8833 201.4178 14.54490334886057
COSMOS 2251 DEB         
1 36459U 93036BBJ 26259.22509391  .00001656  00000+0  62747-3 0  9999
2 36459  74.0461 217.6150 0118193 246.5228 112.3463 14.28148934118414
COSMOS 2251 DEB         
1 36528U 93036BCN 26268.54082749  .00001077  00000+0  39867-3 0  9998
2 36528  74.0181 342.1372 0085563 322.7983  36.7257 14.31537967685308
COSMOS 2251 DEB         
1 36529U 93036BCP 26267.97836964  .00063988  00000+0  53712-2 0  9994
2 36529  74.0008 140.1038 0049992 145.6003 276.9224 14.97028638654000
COSMOS 2251 DEB         
1 36531U 93036BCR 26266.28709143  .00004303  00000+0  13325-2 0  9990
2 36531  74.0856 213.1225 0151626 161.0084 199.6812 14.35057345635723
COSMOS 2251 DEB         
1 36533U 93036BCT 26267.36260761  .00000670  00000+0  17578-3 0  9998
2 36533  74.0096 297.4374 0047594  14.5148 345.7366 14.50536272886254
COSMOS 2251 DEB         
1 36539U 93036BCZ 26269.56191242  .00002174  00000+0  44870-3 0  9991
2 36539  74.0206 225.3368 0028924 292.0412  67.7682 14.60795856881487
COSMOS 2251 DEB         
1 36540U 93036BDA 26268.58425828  .00003077  00000+0  63270-3 0  9992
2 36540  74.0306 352.9376 0015408 348.5903  11.4911 14.60964629901964
COSMOS 2251 DEB         
1 36550U 93036BDL 26260.73825729  .00000764  00000+0  30827-3 0  9998
2 36550  74.0441  47.6794 0077413  30.5140 330.0478 14.27958097885775
COSMOS 2251 DEB         
1 36551U 93036BDM 26268.89824499  .00022430  00000+0  11792-2 0  9990
2 36551  73.8992 137.0978 0031653  25.0982 335.1741 15.15164932712640
COSMOS 2251 DEB         
1 36557U 93036BDT 26265.38550686  .00012834  00000+0  13871-2 0  9998
2 36557  73.9778 282.0848 0020551 347.0609  13.0041 14.88202728381040
COSMOS 2251 DEB         
1 36558U 93036BDU 26268.44001172  .00001694  00000+0  38277-3 0  9990
2 36558  74.0429 330.8849 0013593 339.3830  20.6783 14.56993990894428
COSMOS 2251 DEB         
1 36559U 93036BDV 26267.36192116  .00002874  00000+0  15095-2 0  9993
2 36559  74.1229 239.9661 0262088 204.9513 153.8766 13.98450219850833
COSMOS 2251 DEB         
1 36614U 93036BEC 26267.60408681  .00003168  00000+0  62216-3 0  9994
2 36614  74.0243 346.9114 0016075 343.6169  16.4476 14.63031890697905
COSMOS 2251 DEB         
1 36622U 93036BEL 26268.80867908  .00002243  00000+0  30320-3 0  9991
2 36622  74.0117 301.5242 0065922   2.4346 357.7136 14.78192259709894
COSMOS 2251 DEB         
1 36632U 93036BEW 26267.96022554  .00001313  00000+0  38681-3 0  9993
2 36632  73.9991 119.0611 0033923 161.9674 198.2696 14.44304269693469
COSMOS 2251 DEB         
1 37084U 93036BFE 26267.34222580  .00003585  00000+0  23649-3 0  9999
2 37084  74.0256 297.8238 0092144 301.1078  58.1094 15.04433896705582
COSMOS 2251 DEB         
1 37089U 93036BFK 26264.44331655  .00003405  00000+0  67661-3 0  9999
2 37089  74.0373 329.8824 0129131 357.7216   2.3342 14.57341144702239
COSMOS 2251 DEB         
1 37094U 93036BFQ 26269.49681049  .00001281  00000+0  40594-3 0  9996
2 37094  74.1086 312.9365 0082270 205.0633 154.6519 14.39174713886449
COSMOS 2251 DEB         
1 37095U 93036BFR 26266.76295024  .00000990  00000+0  53926-3 0  9997
2 37095  73.8455  47.3164 0192378  54.0257 307.8548 14.04494184666367
COSMOS 2251 DEB         
1 37101U 93036BFX 26260.72235816  .00003338  00000+0  58085-3 0  9998
2 37101  74.0302 275.5973 0045510 289.9873  69.6399 14.67846612697626
COSMOS 2251 DEB         
1 37108U 93036BGE 26267.44907497  .00001993  00000+0  57211-3 0  9997
2 37108  74.0401 270.8030 0094647 276.0530  82.9848 14.42990929896269
COSMOS 2251 DEB         
1 37118U 93036BGQ 26268.63116363  .00013900  00000+0  16181-2 0  9995
2 37118  74.0111 235.5086 0008321 252.9131 107.1137 14.85283992698028
COSMOS 2251 DEB         
1 37126U 93036BGY 26266.37820997  .00000723  00000+0  10368-3 0  9999
2 37126  73.9515 156.5913 0120997 326.7156  32.6446 14.73849036122914
COSMOS 2251 DEB         
1 37132U 93036BHE 26266.61795621  .00004779  00000+0  60645-3 0  9996
2 37132  74.0019  31.7653 0038752 116.8915 243.6231 14.81451751666309
COSMOS 2251 DEB         
1 37270U 93036BHJ 26269.28382871  .00001443  00000+0  11397-2 0  9998
2 37270  73.9298 225.7808 0393391 184.9032 174.8184 13.61642250809815
COSMOS 2251 DEB         
1 37278U 93036BHS 26267.49067481  .00003569  00000+0  11770-2 0  9990
2 37278  73.7861 193.0581 0295717 325.9007 154.5821 14.16537554678733
COSMOS 2251 DEB         
1 37280U 93036BHU 26268.24393946  .00002167  00000+0  93201-3 0  9998
2 37280  74.0273 264.2427 0133307 322.3997  36.7881 14.20588195613909
COSMOS 2251 DEB         
1 37284U 93036BHY 26269.52764458  .00002613  00000+0  12326-2 0  9998
2 37284  74.0178   6.6945 0158246  90.8860 284.3353 14.13912455632419
COSMOS 2251 DEB         
1 37292U 93036BJG 26268.72359176  .00001404  00000+0  73126-3 0  9998
2 37292  74.1229 271.9525 0207835 203.3250 155.8356 14.04967532638776
COSMOS 2251 DEB         
1 37293U 93036BJH 26249.39200465  .00001619  00000+0  44546-3 0  9999
2 37293  73.9197 138.5408 0065047 348.4674  11.4989 14.46555555692429
COSMOS 2251 DEB         
1 37295U 93036BJK 26267.50286816  .00001846  00000+0  33270-3 0  9992
2 37295  74.0029  89.9811 0044993 197.9946 161.9634 14.66669178864923
COSMOS 2251 DEB         
1 37305U 93036BJV 26264.34588259  .00000768  00000+0  26506-3 0  9995
2 37305  73.8670 125.8652 0046811  29.3782 330.9986 14.37007627709259
COSMOS 2251 DEB         
1 37312U 93036BKC 26269.30915553  .00000934  00000+0  26411-3 0  9995
2 37312  74.0329  26.9793 0017117  59.5824 300.7024 14.46924046903221
COSMOS 2251 DEB         
1 37316U 93036BKG 26269.10720639  .00038442  00000+0  21956-2 0  9999
2 37316  74.0121 152.7603 0027534 159.0184 201.2146 15.12212963904630
COSMOS 2251 DEB         
1 37320U 93036BKL 26264.59948911  .00002666  00000+0  33566-3 0  9997
2 37320  74.0470  20.7613 0043771  33.9082 326.4879 14.81899557703337
COSMOS 2251 DEB         
1 37326U 93036BKS 26267.35388048  .00001046  00000+0  20654-3 0  9994
2 37326  74.0231 147.2736 0056817 205.8102 154.0229 14.62775798896580
COSMOS 2251 DEB         
1 37330U 93036BKW 26269.24979167  .00000778  00000+0  16390-3 0  9990
2 37330  74.0151 105.8621 0058024 241.6899 117.8406 14.60264102905644
COSMOS 2251 DEB         
1 37331U 93036BKX 26269.31625665  .00000925  00000+0  32243-3 0  9999
2 37331  74.0714 261.5631 0057129 206.4911 153.3320 14.35802939888862
COSMOS 2251 DEB         
1 37336U 93036BLC 26269.43709992  .00000100  00000+0  46000-4 0  9995
2 37336  74.0418 165.9512 0029861 177.4644 182.6665 14.32855172692409
COSMOS 2251 DEB         
1 37340U 93036BLG 26269.23790848  .00000287  00000+0  10496-3 0  9993
2 37340  74.0228 108.0986 0017747 140.1384 220.1077 14.37182571881972
COSMOS 2251 DEB         
1 37483U 93036BLL 26263.93075289  .00000296  00000+0  90319-4 0  9990
2 37483  73.9763 336.6558 0091028 118.9727 242.0594 14.43953051693529
COSMOS 2251 DEB         
1 37484U 93036BLM 26268.03476942  .00001450  00000+0  43728-3 0  9992
2 37484  73.8237  30.3471 0038255  10.1235 112.5090 14.43023640695073
COSMOS 2251 DEB         
1 37486U 93036BLP 26267.48875091  .00002506  00000+0  10217-2 0  9999
2 37486  73.6921 316.6690 0216879 143.3691 284.1505 14.15990137674113
COSMOS 2251 DEB         
1 37487U 93036BLQ 26262.60221881  .00019603  00000+0  17163-2 0  9994
2 37487  73.8940 346.0158 0021787 104.0132 256.3476 14.96481939854267
COSMOS 2251 DEB         
1 37491U 93036BLU 26268.36218629  .00001114  00000+0  81706-3 0  9997
2 37491  73.9052 153.2923 0312679  92.3451 271.3500 13.76014675596883
COSMOS 2251 DEB         
1 37496U 93036BLZ 26266.17098632  .00013681  00000+0  90908-3 0  9995
2 37496  73.9437 100.2014 0049794  47.1376 313.3979 15.06186188702832
COSMOS 2251 DEB         
1 37498U 93036BMB 26263.57419838  .00001881  00000+0  42768-3 0  9993
2 37498  74.0374   9.6278 0011471   2.9066 357.2163 14.56625395694560
COSMOS 2251 DEB         
1 37499U 93036BMC 26269.40965691  .00000221  00000+0  87287-4 0  9998
2 37499  74.0378 155.4551 0027745 166.0721 194.1203 14.34551293892744
COSMOS 2251 DEB         
1 37518U 93036BMX 26250.29343112  .00137269  00000+0  27957-2 0  9994
2 37518  73.9600  98.3033 0019485 157.8491 202.3566 15.45465203699989
COSMOS 2251 DEB         
1 37528U 93036BNH 26266.79913638  .00000680  00000+0  17761-3 0  9992
2 37528  74.0362 306.0410 0019771  16.7396 343.4413 14.51273662900659
COSMOS 2251 DEB         
1 37530U 93036BNK 26266.98671814  .00000253  00000+0  98064-4 0  9995
2 37530  74.0366 171.1022 0026742 169.2075 204.6196 14.34795349893233
COSMOS 2251 DEB         
1 37531U 93036BNL 26259.88371593  .00006020  00000+0  10216-2 0  9997
2 37531  74.0083  87.6862 0034025 104.7639 255.7305 14.69028605741307
COSMOS 2251 DEB         
1 37532U 93036BNM 26269.61790086  .00000459  00000+0  14548-3 0  9995
2 37532  74.0506  42.0025 0014481  72.6945 300.9574 14.42785711890676
COSMOS 2251 DEB         
1 37533U 93036BNN 26269.12404847  .00001658  00000+0  79369-3 0  9993
2 37533  74.0687  44.5196 0157819  31.8250 329.2308 14.13488760669802
COSMOS 2251 DEB         
1 37535U 93036BNQ 26269.36125716  .00002194  00000+0  46094-3 0  9991
2 37535  74.0202 244.7791 0029117 305.4969 205.1590 14.59972276895208
COSMOS 2251 DEB         
1 37537U 93036BNS 26266.81215514  .00000332  00000+0  11722-3 0  9998
2 37537  74.0098  99.5846 0051282 173.6822 186.4990 14.37784253891305
COSMOS 2251 DEB         
1 37546U 93036BPB 26269.35859436  .00018596  00000+0  19341-2 0  9992
2 37546  74.0163 245.7519 0008155 238.4390 121.5996 14.89817996701596
COSMOS 2251 DEB         
1 37959U 93036BPJ 26269.63183632  .00002074  00000+0  43299-3 0  9993
2 37959  74.0074 227.5951 0058426 296.7403 237.1178 14.59516017843254
COSMOS 2251 DEB         
1 37960U 93036BPK 26267.74289682  .00000281  00000+0  13444-3 0  9994
2 37960  74.0595  45.2407 0247004 355.5442   4.3494 14.08709187814321
COSMOS 2251 DEB         
1 37961U 93036BPL 26267.56007771  .00001899  00000+0  39818-3 0  9991
2 37961  74.0404 312.6004 0041235 318.3060  41.4964 14.59901089842344
COSMOS 2251 DEB         
1 37967U 93036BPS 26269.50608559  .00002177  00000+0  58323-3 0  9996
2 37967  74.0142 323.1385 0145853  31.4398 329.5372 14.42685127688835
COSMOS 2251 DEB         
1 37968U 93036BPT 26264.77131462  .00007235  00000+0  47154-3 0  9995
2 37968  73.9977  51.2758 0072979  95.2696 265.6827 15.05857679644739
COSMOS 2251 DEB         
1 37969U 93036BPU 26266.28898525  .00003411  00000+0  86988-3 0  9994
2 37969  73.9752 121.3762 0102400 252.6829 106.3108 14.47847945555807
COSMOS 2251 DEB         
1 37971U 93036BPW 26267.58810952  .00005387  00000+0  13049-2 0  9990
2 37971  73.9905 223.1068 0070039 289.5422  69.8185 14.51746549648220
COSMOS 2251 DEB         
1 37973U 93036BPY 26267.99625457  .00000956  00000+0  29255-3 0  9995
2 37973  74.0326 132.4612 0035609 140.0680 220.3106 14.42769369691162
COSMOS 2251 DEB         
1 37975U 93036BQA 26265.32093440  .00010624  00000+0  11064-2 0  9994
2 37975  73.9962 121.5639 0071194  43.7421 316.9369 14.88007137739497
COSMOS 2251 DEB         
1 37985U 93036BQL 26267.28153293  .00000068  00000+0  32501-4 0  9997
2 37985  74.0227 101.6068 0021085 161.1552 199.0386 14.35552312690142
COSMOS 2251 DEB         
1 37988U 93036BQP 26269.18799032  .00003617  00000+0  56864-3 0  9998
2 37988  74.0615 187.0181 0061526 152.3542 208.0925 14.71658526276217
COSMOS 2251 DEB         
1 37993U 93036BQU 26268.46421160  .00003403  00000+0  67177-3 0  9990
2 37993  74.0242 337.9337 0022023 350.9890   9.0879 14.62696906695068
COSMOS 2251 DEB         
1 37994U 93036BQV 26267.96629567  .00000514  00000+0  17056-3 0  9997
2 37994  74.0337 106.8964 0022552 121.3530 238.9836 14.40105568811848
COSMOS 2251 DEB         
1 37996U 93036BQX 26241.30137163  .00006680  00000+0  27903-2 0  9996
2 37996  74.0618 104.8895 0220706 153.3506 207.9186 14.14023779598000
COSMOS 2251 DEB         
1 37998U 93036BQZ 26263.73506101  .00000915  00000+0  26175-3 0  9997
2 37998  74.0346  68.9784 0018984  77.6121 282.7161 14.46363822683630
COSMOS 2251 DEB         
1 38001U 93036BRC 26266.79768640  .00002609  00000+0  32613-3 0  9996
2 38001  73.9977 289.0931 0062337   4.9481 169.3248 14.81523084789266
COSMOS 2251 DEB         
1 38006U 93036BRH 26267.53003786  .00004266  00000+0  10895-2 0  9995
2 38006  73.8435 216.7925 0066210 113.2180 247.5971 14.49493636670975
COSMOS 2251 DEB         
1 38054U 93036BRL 26269.15845711  .00002640  00000+0  22073-2 0  9995
2 38054  73.9517 154.9221 0350806  76.7877  73.9222 13.63860224710965
COSMOS 2251 DEB         
1 38055U 93036BRM 26269.51902440  .00003598  00000+0  46680-3 0  9993
2 38055  74.0102   0.1221 0062161  54.9540 319.0628 14.79804668649366
COSMOS 2251 DEB         
1 38056U 93036BRN 26265.11213606  .00002314  00000+0  13628-2 0  9995
2 38056  73.9164 149.9197 0278511  81.8442 281.4174 13.90855934682117
COSMOS 2251 DEB         
1 38057U 93036BRP 26256.44083774  .00001976  00000+0  77856-3 0  9990
2 38057  73.9987 299.1882 0139362  24.5882 336.1824 14.24622289638486
COSMOS 2251 DEB         
1 38058U 93036BRQ 26268.44150637  .00002958  00000+0  22073-2 0  9998
2 38058  74.0011 183.5007 0398037   7.6515 353.0428 13.63488507622355
COSMOS 2251 DEB         
1 38060U 93036BRS 26268.82611751  .00001389  00000+0  25855-3 0  9991
2 38060  74.0392 103.6634 0058206 137.9796 222.5860 14.65008455761670
COSMOS 2251 DEB         
1 38062U 93036BRU 26267.80736309  .00040667  00000+0  25546-2 0  9995
2 38062  74.0015  65.7694 0014737 123.1458 303.7468 15.08981102673261
COSMOS 2251 DEB         
1 38064U 93036BRW 26267.46908432  .00001642  00000+0  35927-3 0  9992
2 38064  74.0206 300.8117 0046861 345.9515  14.0342 14.57903804760276
COSMOS 2251 DEB         
1 38067U 93036BRZ 26268.75386808  .00001174  00000+0  23292-3 0  9997
2 38067  74.0148  84.7499 0069754 161.8524 211.9573 14.61891230667494
COSMOS 2251 DEB         
1 38068U 93036BSA 26269.05861936  .00000377  00000+0  13716-3 0  9996
2 38068  74.0205 140.1363 0025921 164.0394 196.1582 14.36350189707713
COSMOS 2251 DEB         
1 38197U 93036BSM 26268.03394318  .00017632  00000+0  18775-2 0  9992
2 38197  73.9353 149.6815 0097863 316.0339  43.3082 14.85390993899908
COSMOS 2251 DEB         
1 38199U 93036BSP 26262.82655364  .00000381  00000+0  31403-3 0  9993
2 38199  73.9573 320.2103 0366628 191.7283 167.5123 13.65186405648573
COSMOS 2251 DEB         
1 38208U 93036BSY 26269.13819932  .00020408  00000+0  18840-2 0  9999
2 38208  74.0005 222.8007 0009158 249.8809 123.0775 14.94547410754395
COSMOS 2251 DEB         
1 38212U 93036BTC 26269.31646352  .00001456  00000+0  18776-3 0  9999
2 38212  74.0493 231.8701 0092434 222.9507 136.4428 14.79109277855605
COSMOS 2251 DEB         
1 38220U 93036BTL 26263.22395950  .00034523  00000+0  19801-2 0  9997
2 38220  74.0092 212.3390 0005891 234.0673 125.9974 15.12397766756009
COSMOS 2251 DEB         
1 38479U 93036BTP 26268.00060508  .00002683  00000+0  81682-3 0  9991
2 38479  74.0081  14.5690 0081629  54.6341  63.4852 14.40610719688077
COSMOS 2251 DEB         
1 38481U 93036BTR 26268.18543976  .00001171  00000+0  70603-3 0  9990
2 38481  73.9299 232.0384 0224825 115.4941 246.9631 13.95872850630564
COSMOS 2251 DEB         
1 38483U 93036BTT 26269.12437011  .00001542  00000+0  56693-3 0  9994
2 38483  74.2595 216.7773 0114204 236.0443 122.9813 14.29912831675843
COSMOS 2251 DEB         
1 38486U 93036BTW 26266.97195693  .00008835  00000+0  11241-2 0  9995
2 38486  73.9404   1.5647 0029298  73.1165  45.1806 14.81405844796481
COSMOS 2251 DEB         
1 38487U 93036BTX 26257.09547558  .00205184  00000+0  23275-2 0  9996
2 38487  73.9551 160.6172 0018825 206.1280 153.8991 15.61400428710250
COSMOS 2251 DEB         
1 39109U 93036BTY 26267.01198007  .00001777  00000+0  27900-3 0  9994
2 39109  74.0431  30.6851 0056884  60.8189  56.5517 14.72333205693703
COSMOS 2251 DEB         
1 39110U 93036BTZ 26260.62544409  .00001832  00000+0  26921-3 0  9991
2 39110  73.9542 235.5971 0092680  41.2660  80.5979 14.73389805665904
COSMOS 2251 DEB         
1 39546U 93036BUC 26269.39186628  .00011906  00000+0  96780-3 0  9995
2 39546  73.9944 274.3455 0038805 355.6266   4.4574 14.99042100687388
COSMOS 2251 DEB         
1 39553U 93036BUK 26269.48763755  .00001207  00000+0  68650-3 0  9993
2 39553  74.0261 191.1051 0205879 260.9394  96.8393 14.00849872796451
COSMOS 2251 DEB         
1 39583U 93036BUN 26269.13607628  .00007389  00000+0  12317-2 0  9999
2 39583  73.9319  52.4432 0129612 102.1149 259.4574 14.64682716659822
COSMOS 2251 DEB         
1 39585U 93036BUQ 26256.38848321  .00000535  00000+0  11634-3 0  9999
2 39585  74.0412 138.2192 0066899 190.7370 169.2372 14.59216303665260
COSMOS 2251 DEB         
1 39586U 93036BUR 26257.30285274  .00000542  00000+0  24532-3 0  9994
2 39586  74.0068  93.3170 0100833 164.9824   9.6816 14.21659691648877
COSMOS 2251 DEB         
1 39591U 93036BUW 26267.85033774  .00000834  00000+0  25889-3 0  9997
2 39591  74.0180  75.7260 0028840 122.5136 305.7993 14.42420785659012
COSMOS 2251 DEB         
1 40218U 93036BUX 26268.18552435  .00000675  00000+0  21295-3 0  9992
2 40218  74.0286  77.7342 0015929  96.4816 263.8155 14.42143864629907
COSMOS 2251 DEB         
1 40228U 93036BVH 26266.97685647  .00000489  00000+0  15845-3 0  9997
2 40228  74.0520  93.0028 0022700  86.2927  65.1977 14.41457954630304
COSMOS 2251 DEB         
1 40230U 93036BVK 26267.39398965  .00001483  00000+0  38421-3 0  9991
2 40230  74.0448  50.6658 0016943  38.3127 353.0236 14.50628582631121
COSMOS 2251 DEB         
1 40233U 93036BVN 26269.36151550  .00003024  00000+0  61692-3 0  9999
2 40233  73.9367 271.1721 0047492 279.7979  79.7825 14.60715016633344
COSMOS 2251 DEB         
1 40236U 93036BVR 26264.10628944  .00000523  00000+0  58481-3 0  9998
2 40236  73.5370  58.4999 0534440 273.1535  80.8566 13.25165017573641
COSMOS 2251 DEB         
1 40239U 93036BVU 26262.30827116  .00000975  00000+0  18747-3 0  9995
2 40239  74.0260  98.0663 0084283 140.3445  33.8170 14.62810498637121
COSMOS 2251 DEB         
1 40792U 93036BVV 26265.62314500  .00003450  00000+0  57388-3 0  9990
2 40792  74.0427 217.9995 0019730 248.9148 283.4983 14.70368197673533
COSMOS 2251 DEB         
1 40793U 93036BVW 26262.67381551  .00000844  00000+0  42819-3 0  9990
2 40793  73.9800  31.8431 0212328 126.6892 235.3966 14.06397417721943
COSMOS 2251 DEB         
1 40794U 93036BVX 26267.31252694  .00063042  00000+0  30464-2 0  9993
2 40794  73.9673 256.4471 0012268 293.3463 129.4457 15.18253581662228
COSMOS 2251 DEB         
1 40796U 93036BVZ 26268.44120637  .00004182  00000+0  48404-3 0  9995
2 40796  74.0103 293.4207 0053185 354.3555  71.8488 14.84831565804106
COSMOS 2251 DEB         
1 40797U 93036BWA 26269.57235536  .00016817  00000+0  75900-3 0  9995
2 40797  73.9334 211.8940 0055874  51.4775 309.1411 15.19547817690058
COSMOS 2251 DEB         
1 40799U 93036BWC 26268.62084849  .00004920  00000+0  35644-3 0  9994
2 40799  73.9229 232.8555 0110947  46.5788 314.4565 14.99367600542737
COSMOS 2251 DEB         
1 40802U 93036BWF 26269.43660506  .00002473  00000+0  32274-3 0  9996
2 40802  74.0399 307.3882 0061283 329.3979  30.3626 14.79809115686624
COSMOS 2251 DEB         
1 40803U 93036BWG 26269.60310449  .00000874  00000+0  22021-3 0  9996
2 40803  74.0102 228.7024 0032165  11.3200 348.8677 14.52403944629310
COSMOS 2251 DEB         
1 40808U 93036BWM 26267.10582981  .00004070  00000+0  65870-3 0  9997
2 40808  74.0409 312.4509 0011581 283.3242 105.0749 14.71579959678127
COSMOS 2251 DEB         
1 40810U 93036BWP 26269.33131477  .00002191  00000+0  45912-3 0  9994
2 40810  74.0322 246.2590 0019287 313.9882  45.9693 14.60238039658799
COSMOS 2251 DEB         
1 46271U 93036BWT 26266.70870363  .00000607  00000+0  15578-3 0  9998
2 46271  74.0437 261.9104 0041364 308.1060  51.6374 14.51966899887777
COSMOS 2251 DEB         
1 46430U 93036BWU 26259.48480097  .00006329  00000+0  13987-2 0  9991
2 46430  73.9120 187.8557 0089658  46.9265 313.9357 14.54974250837189
COSMOS 2251 DEB         
1 46432U 93036BWW 26263.04008395  .00000126  00000+0  14554-3 0  9998
2 46432  73.8729  27.8897 0472248  97.5170  22.6135 13.36970734707257
COSMOS 2251 DEB         
1 47045U 93036BWZ 26269.47239049  .00000115  00000+0  45377-4 0  9990
2 47045  74.0603 339.1209 0028380  46.8602 326.2719 14.39023322119444
COSMOS 2251 DEB         
1 47048U 93036BXC 26269.32152868  .00003029  00000+0  63467-3 0  9996
2 47048  73.9759 133.6774 0129354 252.3171 230.3753 14.55048140638698
COSMOS 2251 DEB         
1 47051U 93036BXF 26268.22428162  .00001245  00000+0  99312-3 0  9997
2 47051  74.0980  74.9811 0341565 121.4512  52.2255 13.67921555638548
COSMOS 2251 DEB         
1 47052U 93036BXG 26268.49375422  .00000445  00000+0  15922-3 0  9993
2 47052  74.0493 174.5333 0059468 180.2191 354.3504 14.35861996659047
COSMOS 2251 DEB         
1 47053U 93036BXH 26258.44354346  .00000439  00000+0  38508-3 0  9998
2 47053  74.0603 165.8997 0378198 278.2241 204.1965 13.60254609326507
COSMOS 2251 DEB         
1 47062U 93036BXS 26269.44909323  .00001104  00000+0  84218-3 0  9990
2 47062  74.0819 323.3547 0323876  21.8360 352.8834 13.72630001595494
COSMOS 2251 DEB         
1 47067U 93036BXX 26268.55835971  .00010466  00000+0  30606-2 0  9995
2 47067  74.2054 343.2900 0160344 115.2730 312.3819 14.36808777741680
COSMOS 2251 DEB         
1 47068U 93036BXY 26268.56842049  .00002106  00000+0  49515-3 0  9993
2 47068  74.0251  20.7923 0017682  36.7684 323.4687 14.54948961659269
COSMOS 2251 DEB         
1 47069U 93036BXZ 26269.59056365  .00016776  00000+0  17077-2 0  9991
2 47069  74.0077 259.1885 0006049 233.6513 126.4111 14.90714095767740
COSMOS 2251 DEB         
1 47074U 93036BYE 26268.41629080  .00003851  00000+0  11442-2 0  9997
2 47074  74.0908 143.1250 0139413  98.2664  75.1708 14.38026485 68007
COSMOS 2251 DEB         
1 47116U 93036BYJ 26265.02722515  .00020444  00000+0  11646-2 0  9998
2 47116  74.0221  19.0730 0017416  44.2605  80.4410 15.12630568637759
COSMOS 2251 DEB         
1 47119U 93036BYM 26269.41336722  .00024213  00000+0  41549-2 0  9992
2 47119  74.0857 323.2903 0093037 278.7867  94.6459 14.65788377644089
COSMOS 2251 DEB         
1 53093U 93036BYP 26269.28341162  .00001105  00000+0  33636-3 0  9993
2 53093  74.0334 127.8791 0020597 142.4799 217.7799 14.43105384218722
