GPS BIIR-5  (PRN 22)    
1 26407U 00040A   26238.22107213  .00000032  00000+0  00000+0 0  9995
2 26407  54.8429 212.3817 0119085 303.4143 147.1684  2.00558229191352
GPS BIIR-8  (PRN 16)    
1 27663U 03005A   26237.92259894  .00000032  00000+0  00000+0 0  9993
2 27663  54.8729 212.1995 0149519  53.4426 317.8183  2.00556841172713
GPS BIIR-11 (PRN 19)    
1 28190U 04009A   26235.20461462  .00000024  00000+0  00000+0 0  9990
2 28190  54.7772 272.9743 0118233 175.9321 184.6696  2.00552466164296
GPS BIIR-13 (PRN 02)    
1 28474U 04045A   26238.17720363 -.00000067  00000+0  00000+0 0  9990
2 28474  55.0903 322.0750 0171325 318.0881  94.4890  2.00559082159837
GPS BIIRM-1 (PRN 17)    
1 28874U 05038A   26238.22137660  .00000032  00000+0  00000+0 0  9996
2 28874  54.8250 270.3454 0128680 297.0956 112.7601  2.00560957153240
GPS BIIRM-2 (PRN 31)    
1 29486U 06042A   26237.08995162 -.00000020  00000+0  00000+0 0  9992
2 29486  54.7140 148.6026 0108301  56.4619 156.1663  2.00566197145771
GPS BIIRM-3 (PRN 12)    
1 29601U 06052A   26238.22048164  .00000030  00000+0  00000+0 0  9990
2 29601  54.9272 211.2314 0085106  91.1016 269.8511  2.00561982144814
GPS BIIRM-4 (PRN 15)    
1 32260U 07047A   26238.52786421  .00000012  00000+0  00000+0 0  9998
2 32260  54.1505  77.1672 0168819  89.0151 273.0045  2.00552299138223
GPS BIIRM-5 (PRN 29)    
1 32384U 07062A   26238.01675584  .00000031  00000+0  00000+0 0  9994
2 32384  54.9796 271.3401 0036096 169.5747 310.7688  2.00564015136919
GPS BIIRM-6 (PRN 07)    
1 32711U 08012A   26237.93732137 -.00000010  00000+0  00000+0 0  9990
2 32711  54.5021 147.1377 0211289 248.4116 109.3534  2.00551889135150
GPS BIIRM-8 (PRN 05)    
1 35752U 09043A   26237.48583191 -.00000064  00000+0  00000+0 0  9996
2 35752  56.2523  24.7350 0052171  85.5349 316.9714  2.00578088124756
GPS BIIF-1  (PRN 25)    
1 36585U 10022A   26237.37789501  .00000024  00000+0  00000+0 0  9996
2 36585  54.2643 205.7763 0128143  66.2989  18.6398  2.00565810118981
GPS BIIF-3  (PRN 24)    
1 38833U 12053A   26238.11611743 -.00000006  00000+0  00000+0 0  9996
2 38833  53.5938 140.7331 0184415  66.9914 294.9825  2.00556750100849
GPS BIIF-4  (PRN 27)    
1 39166U 13023A   26237.48564870  .00000037  00000+0  00000+0 0  9994
2 39166  54.4546 266.1456 0141813  51.1230 310.2042  2.00563339 97273
GPS BIIF-5  (PRN 30)    
1 39533U 14008A   26236.98887493 -.00000022  00000+0  00000+0 0  9994
2 39533  53.6605 146.5125 0083767 231.6217 127.6472  2.00564347 91063
GPS BIIF-6  (PRN 06)    
1 39741U 14026A   26237.76526058 -.00000078  00000+0  00000+0 0  9990
2 39741  56.4592 328.8079 0038802 324.5264  35.2620  2.00556029 89937
GPS BIIF-7  (PRN 09)    
1 40105U 14045A   26238.35439498  .00000020  00000+0  00000+0 0  9990
2 40105  55.4017  85.6694 0035933 119.3593 241.0909  2.00563091 87484
GPS BIIF-8  (PRN 03)    
1 40294U 14068A   26238.22444259 -.00000055  00000+0  00000+0 0  9990
2 40294  57.0347  28.2619 0067319  73.4941 287.2584  2.00555869 86616
GPS BIIF-9  (PRN 26)    
1 40534U 15013A   26237.86289153  .00000016  00000+0  00000+0 0  9993
2 40534  53.1611 201.2975 0111825  40.6839 320.1136  2.00571957 83226
GPS BIIF-10 (PRN 08)    
1 40730U 15033A   26238.02505223  .00000037  00000+0  00000+0 0  9994
2 40730  53.9330 264.2022 0116442  30.4103 330.3271  2.00552701 81398
GPS BIIF-11 (PRN 10)    
1 41019U 15062A   26237.57910606 -.00000056  00000+0  00000+0 0  9993
2 41019  57.0054  28.1431 0114851 230.8870 128.1024  2.00567050 79228
GPS BIIF-12 (PRN 32)    
1 41328U 16007A   26237.17007967  .00000012  00000+0  00000+0 0  9990
2 41328  55.5695  86.7242 0097077 247.2893 111.7678  2.00573686 77225
GPS BIII-1  (PRN 04)    
1 43873U 18109A   26238.09566344  .00000021  00000+0  00000+0 0  9993
2 43873  55.7259  89.4282 0039677 196.3558   4.7359  2.00564699 56473
GPS BIII-2  (PRN 18)    
1 44506U 19056A   26237.49286138 -.00000080  00000+0  00000+0 0  9998
2 44506  55.5985 328.3877 0065213 199.3522 191.7388  2.00571120 51465
GPS BIII-3  (PRN 23)    
1 45854U 20041A   26238.53649102 -.00000059  00000+0  00000+0 0  9997
2 45854  56.7145  26.2193 0067313 205.0520 154.6641  2.00557074 45447
GPS BIII-4  (PRN 14)    
1 46826U 20078A   26238.31842493  .00000025  00000+0  00000+0 0  9993
2 46826  53.9722 207.9358 0075703 208.2723 332.9433  2.00565214 42914
GPS BIII-5  (PRN 11)    
1 48859U 21054A   26238.32885291 -.00000078  00000+0  00000+0 0  9999
2 48859  55.1357 329.6396 0027979 229.7716 145.1663  2.00564891 38167
GPS BIII-6  (PRN 28)    
1 55268U 23009A   26235.99305556 -.00000030  00000+0  00000+0 0  9992
2 55268  55.1261 145.8532 0005894 327.0864 200.4351  2.00567400 26605
GPS BIII-7  (PRN 01)    
1 62339U 24242A   26237.16296324 -.00000087  00000+0  00000+0 0  9994
2 62339  54.8147 331.3847 0018676   2.1838  12.9479  2.00573425 12646
GPS BIII-8  (PRN 21)    
1 64202U 25116A   26238.38492740 -.00000058  00000+0  00000+0 0  9999
2 64202  55.2817  28.3108 0008651 338.1081  22.4205  2.00571009  9288
GPS BIII-9  (PRN 20)    
1 67588U 26017A   26237.99617344  .00000017  00000+0  00000+0 0  9999
2 67588  55.1356  85.9534 0020826 262.2892  97.5637  2.00569535433017
GPS BIII-10 (PRN 13)    
1 68791U 26087A   26236.90520219  .00000026  00000+0  00000+0 0  9997
2 68791  54.9585 205.0717 0020814 104.4751  34.0243  2.00576182  2210
