IRIDIUM 33              
1 24946U 97051C   26272.59700481  .00000152  00000+0  46371-4 0  9992
2 24946  86.3849 306.1441 0007559   1.4100 358.7116 14.35181512520061
IRIDIUM 33 DEB          
1 33773U 97051L   26272.77782244  .00000443  00000+0  12427-3 0  9994
2 33773  86.3971 297.2298 0008832 269.6718  90.3471 14.43775846925467
IRIDIUM 33 DEB          
1 33775U 97051N   26272.56792808  .00000652  00000+0  19196-3 0  9992
2 33775  86.3577 285.3182 0010293 283.4648 203.2439 14.42209686923315
IRIDIUM 33 DEB          
1 33776U 97051P   26272.65689141  .00000344  00000+0  10589-3 0  9993
2 33776  86.4042 318.5781 0013028 329.9906 151.9529 14.38639754922642
IRIDIUM 33 DEB          
1 33777U 97051Q   26272.76591872  .00001716  00000+0  37418-3 0  9993
2 33777  86.3716 268.4051 0006847  14.9206 345.2203 14.57367240927706
IRIDIUM 33 DEB          
1 33850U 97051T   26272.77992197  .00000788  00000+0  23003-3 0  9994
2 33850  86.3351 264.9460 0009391 292.8537 186.5788 14.42858001923488
IRIDIUM 33 DEB          
1 33853U 97051W   26272.60794159  .00001205  00000+0  66201-3 0  9999
2 33853  85.9993 222.1360 0213611  63.5135  60.5160 14.00005807894149
IRIDIUM 33 DEB          
1 33860U 97051AD  26272.41730811  .00003635  00000+0  58705-3 0  9990
2 33860  86.3769 258.0867 0011218  63.4716  57.1288 14.71104266929910
IRIDIUM 33 DEB          
1 33862U 97051AF  26272.78239793  .00001761  00000+0  25816-3 0  9990
2 33862  86.4038 268.5668 0050148 134.7545 345.0679 14.74105711931065
IRIDIUM 33 DEB          
1 33866U 97051AK  26272.70047758  .00001175  00000+0  44816-3 0  9994
2 33866  86.3050 329.7945 0109292 305.2858 181.2389 14.26828560909577
IRIDIUM 33 DEB          
1 33870U 97051AP  26272.57013057  .00001027  00000+0  27606-3 0  9993
2 33870  86.3701 293.4740 0018202 298.5390 188.6756 14.47096830923418
IRIDIUM 33 DEB          
1 33881U 97051BA  26272.70261524  .00003424  00000+0  64193-3 0  9999
2 33881  86.3868 339.4210 0052807 263.7584 224.0358 14.63613352917479
IRIDIUM 33 DEB          
1 33884U 97051BD  26272.69962190  .00005055  00000+0  59518-3 0  9994
2 33884  86.3640 237.5436 0012965  25.9946  92.9302 14.84566894931556
IRIDIUM 33 DEB          
1 33886U 97051BF  26272.62839659  .00000246  00000+0  77439-4 0  9992
2 33886  86.3806 304.7888 0014634  23.6138  93.2123 14.36326144922276
IRIDIUM 33 DEB          
1 33887U 97051BG  26272.68864897  .00000255  00000+0  78512-4 0  9994
2 33887  86.3021 237.9776 0007056  27.3062  94.2627 14.37449977923447
IRIDIUM 33 DEB          
1 33953U 97051BN  26272.56070057  .00001718  00000+0  37205-3 0  9990
2 33953  86.3800 287.3078 0015660 191.6259 294.2657 14.57599374925371
IRIDIUM 33 DEB          
1 33960U 97051BV  26272.66517264  .00006373  00000+0  55982-3 0  9999
2 33960  86.2565 150.9419 0003137 100.6344 320.7839 14.96419831932053
IRIDIUM 33 DEB          
1 33966U 97051CB  26272.81900090  .00000884  00000+0  22039-3 0  9993
2 33966  86.3861 281.0048 0005829 325.8128 209.2119 14.50609357926604
IRIDIUM 33 DEB          
1 34071U 97051CE  26272.70994442  .00001134  00000+0  28388-3 0  9995
2 34071  86.3404 251.1945 0005975 198.3149 161.7841 14.50635497925514
IRIDIUM 33 DEB          
1 34077U 97051CL  26272.78768205  .00003069  00000+0  51873-3 0  9999
2 34077  86.3793 282.7854 0012021 103.5657  71.2905 14.69053628926003
IRIDIUM 33 DEB          
1 34079U 97051CN  26272.38631111  .00007896  00000+0  78080-3 0  9993
2 34079  86.3728 235.3975 0009443  47.4508 112.9072 14.91741754933001
IRIDIUM 33 DEB          
1 34088U 97051CX  26272.71101941  .00023895  00000+0  14623-2 0  9992
2 34088  86.3639 254.7122 0006248 144.7687 339.5501 15.10090403931079
IRIDIUM 33 DEB          
1 34091U 97051DA  26272.35712987  .00024348  00000+0  19039-2 0  9994
2 34091  86.3417 291.6327 0022828 343.9186  16.1319 15.00749063922014
IRIDIUM 33 DEB          
1 34097U 97051DG  26272.34059767  .00002030  00000+0  65974-3 0  9993
2 34097  86.1976 232.8783 0081953 129.6463 231.2004 14.36466446912897
IRIDIUM 33 DEB          
1 34145U 97051DY  26272.22780988  .00001736  00000+0  49424-3 0  9994
2 34145  86.2155 202.9197 0049601 213.1246 146.6847 14.44075753918289
IRIDIUM 33 DEB          
1 34146U 97051DZ  26272.38137810  .00001984  00000+0  49890-3 0  9994
2 34146  86.2836 221.2011 0025947 342.5837 139.3794 14.50589314923180
IRIDIUM 33 DEB          
1 34159U 97051EN  26272.77549376  .00000535  00000+0  16592-3 0  9999
2 34159  86.3452 284.1041 0029535  54.6703 305.7250 14.39095408921446
IRIDIUM 33 DEB          
1 34350U 97051ES  26272.64663486  .00000709  00000+0  19319-3 0  9990
2 34350  86.3254 236.4799 0018545 252.3835 234.6124 14.46031357924962
IRIDIUM 33 DEB          
1 34366U 97051FJ  26272.79301103  .00001767  00000+0  39276-3 0  9997
2 34366  86.3629 282.4341 0017549 235.5796 248.2383 14.56409114924151
IRIDIUM 33 DEB          
1 34375U 97051FT  26272.44194766  .00000495  00000+0  22034-3 0  9995
2 34375  86.4256  65.4070 0099603 283.1586 144.4807 14.18453054908322
IRIDIUM 33 DEB          
1 34376U 97051FU  26272.66942928  .00004282  00000+0  75324-3 0  9999
2 34376  86.2936 235.0859 0020882 256.6884 103.2001 14.67284873922673
IRIDIUM 33 DEB          
1 34486U 97051GB  26272.38320735  .00024339  00000+0  13524-2 0  9994
2 34486  86.3774 235.6081 0009451 112.7964  10.1276 15.13552242933581
IRIDIUM 33 DEB          
1 34487U 97051GC  26272.40661219  .00000361  00000+0  10018-3 0  9998
2 34487  86.3393 247.1812 0028579 247.6654 264.8875 14.43572324924415
IRIDIUM 33 DEB          
1 34492U 97051GH  26271.84521821  .00009319  00000+0  29820-2 0  9997
2 34492  86.4712 216.8414 0181105  22.2852  36.7103 14.30527902892007
IRIDIUM 33 DEB          
1 34497U 97051GN  26272.32168001  .00000757  00000+0  28553-3 0  9993
2 34497  86.2727 288.1935 0080899 120.7545 297.8154 14.28274992910302
IRIDIUM 33 DEB          
1 34508U 97051GZ  26272.46702251  .00001483  00000+0  45385-3 0  9991
2 34508  86.3737 339.1777 0060956 297.7816  61.7211 14.40126244914919
IRIDIUM 33 DEB          
1 34521U 97051HN  26272.23947263  .00002519  00000+0  45081-3 0  9999
2 34521  86.3731 262.2454 0004093  36.5734 323.5758 14.66499620927260
IRIDIUM 33 DEB          
1 34525U 97051HS  26272.54896917  .00000553  00000+0  15744-3 0  9995
2 34525  86.3670 282.6640 0003901 178.8445 309.3778 14.43522253922820
IRIDIUM 33 DEB          
1 34529U 97051HW  26272.48759706  .00000265  00000+0  76491-4 0  9993
2 34529  86.3573 271.4348 0004030 353.3345   6.7800 14.40940406923286
IRIDIUM 33 DEB          
1 34538U 97051JF  26272.36045156  .00001420  00000+0  40687-3 0  9998
2 34538  86.2738 238.0730 0037459  82.2688  69.8298 14.43932751919486
IRIDIUM 33 DEB          
1 34540U 97051JH  26272.19291422  .00004104  00000+0  53069-3 0  9991
2 34540  86.3139 174.2009 0011257 236.2746 275.5234 14.80649353933126
IRIDIUM 33 DEB          
1 34648U 97051JZ  26272.47159116  .00001972  00000+0  87714-3 0  9998
2 34648  86.3984 164.2526 0167512 100.2153 261.7971 14.15215188890696
IRIDIUM 33 DEB          
1 34651U 97051KC  26272.29400968  .00001986  00000+0  70700-3 0  9998
2 34651  86.2845  16.4224 0129122 348.0340  11.7791 14.29296765900424
IRIDIUM 33 DEB          
1 34652U 97051KD  26272.59489646  .00001998  00000+0  37320-3 0  9996
2 34652  86.3338 210.2305 0029353  26.6673  95.9571 14.64175320927375
IRIDIUM 33 DEB          
1 34690U 97051KM  26271.45529500  .00002370  00000+0  52822-3 0  9995
2 34690  86.3713 270.9352 0011603 109.5926  42.5771 14.56473148923095
IRIDIUM 33 DEB          
1 34696U 97051KT  26272.41026016  .00016934  00000+0  20667-2 0  9994
2 34696  86.1783 250.0471 0044423 236.1975 276.0918 14.82520342909576
IRIDIUM 33 DEB          
1 34765U 97051LJ  26272.27135711  .00000687  00000+0  20700-3 0  9995
2 34765  86.3329 268.0162 0015668 349.6066  69.0006 14.41118291917979
IRIDIUM 33 DEB          
1 34833U 97051MH  26272.25743747  .00001368  00000+0  31957-3 0  9996
2 34833  86.3872 285.6240 0018508 193.5087 289.1078 14.53919683919349
IRIDIUM 33 DEB          
1 34870U 97051MQ  26272.08554725  .00003921  00000+0  49744-3 0  9994
2 34870  86.3152 180.5253 0012921 261.7976 164.1216 14.81418151932038
IRIDIUM 33 DEB          
1 34896U 97051MY  26272.09446968  .00002206  00000+0  37364-3 0  9992
2 34896  86.3342 196.1865 0023603 306.3259 115.4593 14.68676503918783
IRIDIUM 33 DEB          
1 34926U 97051NF  26272.36391356  .00010600  00000+0  19331-2 0  9996
2 34926  86.1315 232.2004 0073701  31.6641 119.7172 14.64140117906981
IRIDIUM 33 DEB          
1 34985U 97051NR  26272.37597547  .00000902  00000+0  26272-3 0  9999
2 34985  86.3651 292.8020 0020362 350.8604  72.9298 14.43034350913650
IRIDIUM 33 DEB          
1 35051U 97051NX  26271.65798778  .00001271  00000+0  33173-3 0  9991
2 35051  86.3204 242.3344 0007121 184.2347 175.8798 14.48739610911921
IRIDIUM 33 DEB          
1 35052U 97051NY  26272.38040769  .00000317  00000+0  96538-4 0  9998
2 35052  86.3254 255.8316 0010436 198.4392 161.6430 14.38797969914542
IRIDIUM 33 DEB          
1 35297U 97051PM  26269.37849311  .00001236  00000+0  33984-3 0  9990
2 35297  86.3837 299.9073 0013317 267.9485  92.0193 14.46225538745828
IRIDIUM 33 DEB          
1 35299U 97051PP  26271.75746822  .00001584  00000+0  46082-3 0  9999
2 35299  86.2818 266.6712 0052460 222.5091 260.1417 14.42901783905106
IRIDIUM 33 DEB          
1 35480U 97051QA  26272.23896490  .00001223  00000+0  30443-3 0  9996
2 35480  86.3505 258.8124 0011827 204.5125 155.5519 14.50941880912426
IRIDIUM 33 DEB          
1 35484U 97051QE  26272.58133867  .00042035  00000+0  16340-2 0  9995
2 35484  86.3425 213.3286 0015722 115.1287 245.1592 15.25756053664116
IRIDIUM 33 DEB          
1 35488U 97051QJ  26272.13216455  .00004301  00000+0  45661-3 0  9998
2 35488  86.3277 166.3802 0026274  87.4125 273.0108 14.88554084925797
IRIDIUM 33 DEB          
1 35616U 97051QN  26272.57339106  .00006601  00000+0  69938-3 0  9996
2 35616  86.3546 212.0972 0004790 221.3825 138.7039 14.88978036918936
IRIDIUM 33 DEB          
1 35618U 97051QQ  26265.17735907  .00001068  00000+0  25087-3 0  9994
2 35618  86.3387 229.4160 0029270 141.5350 218.7951 14.53247589695093
IRIDIUM 33 DEB          
1 35620U 97051QS  26272.80429326  .00004836  00000+0  12923-2 0  9990
2 35620  86.3839  94.0976 0128016  20.6680 339.9631 14.43363558641580
IRIDIUM 33 DEB          
1 35622U 97051QU  26256.60678486  .00973295  00000+0  68728-2 0  9993
2 35622  86.1657 123.9048 0006818 184.5217 206.2846 15.71676439915430
IRIDIUM 33 DEB          
1 35625U 97051QX  26272.71116035  .00002576  00000+0  89291-3 0  9997
2 35625  86.1854 255.0961 0102098 339.7910 143.4135 14.32409474702036
IRIDIUM 33 DEB          
1 35628U 97051RA  26272.21163575  .00003551  00000+0  56947-3 0  9992
2 35628  86.3534 239.0192 0014018  55.2716 304.9818 14.71376101907135
IRIDIUM 33 DEB          
1 35631U 97051RD  26272.40917137  .00000581  00000+0  15114-3 0  9999
2 35631  86.3616 255.7274 0014659 226.3549 286.6008 14.47915051914021
IRIDIUM 33 DEB          
1 35680U 97051RJ  26270.26865941  .00003294  00000+0  12809-2 0  9991
2 35680  86.0996 253.4347 0150242  79.7259 344.7605 14.23539212648035
IRIDIUM 33 DEB          
1 35744U 97051RX  26271.54375133  .00003258  00000+0  48696-3 0  9997
2 35744  86.3339 194.0851 0017693 280.5128  79.4097 14.74365735915979
IRIDIUM 33 DEB          
1 35797U 97051SF  26271.55852326  .00007191  00000+0  73995-3 0  9990
2 35797  86.3396 195.9079 0007175 204.5799 155.5087 14.90153883916474
IRIDIUM 33 DEB          
1 35806U 97051SQ  26262.26837131  .00002540  00000+0  52601-3 0  9990
2 35806  86.3385 256.7858 0012544 187.0537 173.0499 14.59868229904140
IRIDIUM 33 DEB          
1 35809U 97051ST  26272.54906762  .00004740  00000+0  60610-3 0  9995
2 35809  86.3302 202.2300 0010695 329.4101  30.6496 14.81150792911051
IRIDIUM 33 DEB          
1 35846U 97051SW  26272.80127885  .00000775  00000+0  22046-3 0  9991
2 35846  86.3707 294.5472 0015445 294.8527  65.1068 14.44097099755288
IRIDIUM 33 DEB          
1 35848U 97051SY  26271.22830222  .00006118  00000+0  71807-3 0  9990
2 35848  86.3849 245.1392 0003692 276.2763  83.8040 14.84792946709785
IRIDIUM 33 DEB          
1 35850U 97051TA  26269.12293683  .00010828  00000+0  12711-2 0  9994
2 35850  86.3494 212.7440 0005467 287.4835  72.5791 14.84834285756147
IRIDIUM 33 DEB          
1 35915U 97051TY  26272.55798401  .00006288  00000+0  68495-3 0  9991
2 35915  86.3446 209.1589 0006304 260.9884  99.0628 14.87838771124016
IRIDIUM 33 DEB          
1 35918U 97051UB  26271.86460941  .00001834  00000+0  43595-3 0  9998
2 35918  86.4000 311.0839 0023115 277.4606 207.6643 14.53238045894188
IRIDIUM 33 DEB          
1 35929U 97051UN  26271.03491618  .00040436  00000+0  15208-2 0  9994
2 35929  86.3397 173.1566 0012428  42.1612 318.0588 15.26902092921582
IRIDIUM 33 DEB          
1 36011U 97051US  26270.30013983  .00000964  00000+0  28704-3 0  9999
2 36011  86.3345 271.4016 0018214 357.3898  59.0434 14.42097846686989
IRIDIUM 33 DEB          
1 36012U 97051UT  26272.21721851  .00006925  00000+0  23955-2 0  9997
2 36012  86.4407 190.0747 0226812  52.4636 309.6926 14.22150501696094
IRIDIUM 33 DEB          
1 36028U 97051VK  26271.46658544  .00014753  00000+0  91634-3 0  9996
2 36028  86.3104 168.7132 0017039  81.2422 279.0745 15.09452116914765
IRIDIUM 33 DEB          
1 36080U 97051VM  26271.17267145  .00001380  00000+0  36915-3 0  9998
2 36080  86.3129 241.7315 0014283 283.3933  76.5677 14.47595161516003
IRIDIUM 33 DEB          
1 36083U 97051VQ  26272.74806267  .00000923  00000+0  26298-3 0  9994
2 36083  86.3368 268.7652 0025651 348.6268  11.4350 14.44102589896485
IRIDIUM 33 DEB          
1 36390U 97051VU  26272.42771539  .00002482  00000+0  34773-3 0  9992
2 36390  86.2933 165.7879 0026487 239.3246 120.5363 14.76892287705481
IRIDIUM 33 DEB          
1 36483U 97051VZ  26267.35471806  .00000954  00000+0  25864-3 0  9998
2 36483  86.3749 290.1584 0006670 256.5277 103.5182 14.46694493692743
IRIDIUM 33 DEB          
1 36490U 97051WG  26272.35060381  .00005672  00000+0  70531-3 0  9997
2 36490  86.3608 238.5639 0005721  95.6319 264.5556 14.82380431907822
IRIDIUM 33 DEB          
1 36493U 97051WK  26272.19232870  .00003128  00000+0  53418-3 0  9995
2 36493  86.3538 242.1847 0013341  74.0798 286.1886 14.68581046787773
IRIDIUM 33 DEB          
1 36497U 97051WP  26263.33961218  .00003656  00000+0  63534-3 0  9996
2 36497  86.1510 121.9785 0042956 237.0930 122.6148 14.67308238697766
IRIDIUM 33 DEB          
1 37136U 97051XG  26271.57118238  .00001001  00000+0  37954-3 0  9997
2 37136  86.1748 209.9776 0077248 132.7150 228.0582 14.28510442686359
IRIDIUM 33 DEB          
1 37548U 97051XH  26271.74467656  .00001994  00000+0  47600-3 0  9994
2 37548  86.3461 276.9525 0021687 303.0844  56.8280 14.53114566697411
IRIDIUM 33 DEB          
1 37550U 97051XK  26269.27330913  .00005610  00000+0  91341-3 0  9997
2 37550  86.3706 255.9658 0003120 143.4672 216.6758 14.70883995905558
IRIDIUM 33 DEB          
1 37562U 97051XX  26271.79199341  .00002200  00000+0  46384-3 0  9997
2 37562  86.3681 276.8410 0022655 198.5803 282.8398 14.58875889905545
IRIDIUM 33 DEB          
1 37565U 97051YA  26259.24325484  .00001399  00000+0  33686-3 0  9994
2 37565  86.3442 248.5460 0010697 222.6008 137.4370 14.52590282698643
IRIDIUM 33 DEB          
1 38017U 97051YD  26271.61905205  .00014188  00000+0  31176-2 0  9998
2 38017  86.3314  39.2998 0079124 213.4605 146.1591 14.55499200656104
IRIDIUM 33 DEB          
1 38022U 97051YJ  26272.66757003  .00001664  00000+0  48484-3 0  9997
2 38022  86.2635 248.7784 0044005 164.5265 195.7293 14.43071002733875
IRIDIUM 33 DEB          
1 38028U 97051YQ  26268.18956026  .00000927  00000+0  24907-3 0  9996
2 38028  86.3232 235.6398 0025352 250.1038 109.7433 14.46891180696368
IRIDIUM 33 DEB          
1 38228U 97051ZC  26272.31150767  .00000472  00000+0  18008-3 0  9996
2 38228  86.2879 284.9000 0062604 336.7580  35.7444 14.27697928889274
IRIDIUM 33 DEB          
1 38241U 97051ZR  26264.62855727  .00001574  00000+0  35035-3 0  9997
2 38241  86.3218 225.5919 0003769 131.2440 228.9094 14.56382970643160
IRIDIUM 33 DEB          
1 38474U 97051AAB 26271.66621164  .00001233  00000+0  30028-3 0  9992
2 38474  86.3387 243.5571 0024294 190.2504 169.8210 14.51812431695234
IRIDIUM 33 DEB          
1 38477U 97051AAE 26272.52544464  .00002472  00000+0  18424-2 0  9999
2 38477  86.4092 357.8599 0398442 113.4531 250.9034 13.62742632586350
IRIDIUM 33 DEB          
1 39777U 97051AAJ 26270.08317658  .00005912  00000+0  11436-2 0  9993
2 39777  85.9585  34.1963 0054757 287.3702  72.1525 14.62257711643920
IRIDIUM 33 DEB          
1 39778U 97051AAK 26272.73870730  .00001865  00000+0  41730-3 0  9997
2 39778  86.3709 276.6717 0009241 115.6449 244.5715 14.56195895649258
IRIDIUM 33 DEB          
1 39781U 97051AAN 26270.37686964  .00003201  00000+0  11398-2 0  9995
2 39781  86.3774 138.5963 0171342  67.2624 108.5285 14.26099963122143
IRIDIUM 33 DEB          
1 40996U 97051ABJ 26258.87718342  .00054324  00000+0  25031-2 0  9993
2 40996  86.3437 229.3184 0010804  95.7832 264.4643 15.20004132666664
IRIDIUM 33 DEB          
1 40998U 97051ABL 26269.81858047  .00000899  00000+0  24713-3 0  9993
2 40998  86.3780 290.5223 0007027 183.7079 301.0572 14.45949589108430
IRIDIUM 33 DEB          
1 46435U 97051ABN 26271.22594206  .00006145  00000+0  15181-2 0  9995
2 46435  86.2744  68.0898 0197634  44.6174 128.1921 14.40737323120764
IRIDIUM 33 DEB          
1 46734U 97051ABR 26268.19995663  .00002123  00000+0  61600-3 0  9991
2 46734  86.2602 236.8828 0041238 103.8599 313.2167 14.43456657671417
IRIDIUM 33 DEB          
1 46965U 97051ABX 26272.30439709  .00001751  00000+0  34353-3 0  9990
2 46965  86.3380 211.6070 0021506  58.9031  94.2142 14.62024245665118
IRIDIUM 33 DEB          
1 46971U 97051ACD 26269.05356433  .00070065  00000+0  33011-2 0  9990
2 46971  86.3136 195.2376 0007836  39.3222 333.1067 15.19190577685618
IRIDIUM 33 DEB          
1 46972U 97051ACE 26269.78483752  .00001152  00000+0  28176-3 0  9994
2 46972  86.3808 275.2855 0007620 207.8236 326.8586 14.51732623657505
IRIDIUM 33 DEB          
1 46974U 97051ACG 26271.93266274  .00004119  00000+0  10203-2 0  9991
2 46974  86.3011 337.9542 0083013 300.0945  59.2047 14.49660802617067
IRIDIUM 33 DEB          
1 46979U 97051ACM 26248.81219839  .00057352  00000+0  23678-2 0  9999
2 46979  86.3134 281.1039 0007714 340.3269  19.7677 15.23765769394466
