HST                     
1 20580U 90037B   26274.76539920  .00003769  00000+0  11191-3 0  9996
2 20580  28.4725  71.5471 0001229 256.6573 103.3886 15.31800993804929
POLAR                   
1 23802U 96013A   26268.93925484  .00000117  00000+0  00000+0 0  9999
2 23802  80.0113 225.8418 6566233 205.5949  97.1375  1.29845792146162
SWAS                    
1 25560U 98071A   26275.80184348  .00001406  00000+0  92390-4 0  9998
2 25560  69.8942 309.8795 0002424  82.3725 277.7714 15.10180376513510
CXO                     
1 25867U 99040B   26277.80123358  .00000859  00000+0  00000+0 0  9994
2 25867  57.7189 113.7402 7670570 309.2627   0.3215  0.37806761 17744
XMM-NEWTON              
1 25989U 99066A   26269.07810877  .00000180  00000+0  00000+0 0  9993
2 25989  63.9616 281.6787 4648581  63.1030   0.1095  0.50121727 23515
TERRA                   
1 25994U 99068A   26275.88464321  .00000158  00000+0  41153-4 0  9990
2 25994  97.9338 321.0997 0001114 221.8069 251.8301 14.61168768425331
TIMED                   
1 26998U 01055B   26275.58427125  .00000658  00000+0  63011-4 0  9994
2 26998  74.0696  18.7390 0001342 227.0929 133.0143 14.95485808346872
CORIOLIS                
1 27640U 03001A   26275.72572609  .00000041  00000+0  39957-4 0  9994
2 27640  98.7170 280.9912 0012888 263.0152  96.9558 14.19969531229485
SORCE                   
1 27651U 03004A   26275.31418126  .00001477  00000+0  11517-3 0  9992
2 27651  39.9919  10.2403 0016011 101.6275 258.6317 15.04178803288034
MOST                    
1 27843U 03031D   26275.77677727  .00000017  00000+0  27758-4 0  9993
2 27843  98.7083 282.0204 0008937 305.9090  54.1257 14.21340399205997
SCISAT 1                
1 27858U 03036A   26275.79632373  .00000209  00000+0  31282-4 0  9994
2 27858  73.9301 317.5184 0007639 345.1981  14.8970 14.81551019247388
SWIFT                   
1 28485U 04047A   26272.83122118  .00155961  00000+0  58969-3 0  9993
2 28485  20.5499  89.9027 0004696  25.2544 334.8134 15.85865120203383
HINODE (SOLAR-B)        
1 29479U 06041A   26275.76116051  .00000277  00000+0  55933-4 0  9995
2 29479  98.0542 290.3330 0016335 309.5689  50.4073 14.68734778 70662
SHIJIAN-6 02A (SJ-6 02A)
1 29505U 06046A   26275.83863850  .00001833  00000+0  93734-4 0  9994
2 29505  97.6256 317.7325 0004469 115.3727 244.7969 15.17942354 88597
SHIJIAN-6 02B (SJ-6 02B)
1 29506U 06046B   26275.84251141  .00000694  00000+0  58206-4 0  9999
2 29506  97.6956 304.1299 0015357  71.8243 288.4652 15.01503402 86897
FGRST (GLAST)           
1 33053U 08029A   26275.85767720  .00002179  00000+0  72910-4 0  9998
2 33053  25.5811 176.5914 0008147 155.9782 204.1137 15.24427455 12132
SDO                     
1 36395U 10005A   26275.47223611 -.00000068  00000+0  00000+0 0  9993
2 36395  34.8745  84.7115 0001797  83.7566 271.1810  1.00273305 61136
CRYOSAT 2               
1 36508U 10013A   26275.80363431  .00000060  00000+0  14138-4 0  9993
2 36508  92.0249 303.4189 0002150  89.7262 270.4192 14.51904917873699
X-SAT                   
1 37389U 11015C   26275.84945304 -.00000171  00000+0 -55311-4 0  9996
2 37389  98.3667 247.8159 0014818  31.1760 329.0297 14.25231122803014
GCOM-W1 (SHIZUKU)       
1 38337U 12025A   26275.37268272  .00000245  00000+0  64369-4 0  9995
2 38337  98.2097 214.3311 0001658  78.7378  33.4986 14.57111000764646
NUSTAR                  
1 38358U 12031A   26275.83335647  .00000227  00000+0 -38206-4 0  9999
2 38358   6.0281 306.1282 0009176 271.4159 211.3130 15.09673586  1305
NEOSSAT                 
1 39089U 13009D   26275.31642491  .00000091  00000+0  46222-4 0  9993
2 39089  98.4228  92.8479 0009892 289.4453  70.5664 14.35858080712118
BRITE-AUSTRIA           
1 39091U 13009F   26275.74916390  .00000071  00000+0  38861-4 0  9993
2 39091  98.4050  92.5718 0009015 280.4429  79.5742 14.36576154712495
IRIS                    
1 39197U 13033A   26275.83661931  .00000513  00000+0  64756-4 0  9998
2 39197  97.9258 114.7665 0023724 329.6700  30.3141 14.86060755716363
HISAKI (SPRINT-A)       
1 39253U 13049A   26275.36103426  .00000104  00000+0  51792-4 0  9998
2 39253  29.7209  35.1227 0136436 165.7888 194.6574 13.55552177645977
CASSIOPE                
1 39265U 13055A   26275.82094494  .00028496 -71994-6  27791-3 0  9996
2 39265  80.9102 295.2617 0265396  57.7201 304.9448 15.32716419684113
STSAT-3                 
1 39422U 13066G   26275.89715928  .00000818  00000+0  64846-4 0  9995
2 39422  97.6366 244.1487 0011295  39.8446 320.3606 15.03247788700384
SWARM B                 
1 39451U 13067A   26275.87135803  .00001699  00000+0  58859-4 0  9999
2 39451  87.7406 309.6091 0002968  80.1962 279.9623 15.29111563699696
SWARM A                 
1 39452U 13067B   26275.79323227  .00007064  00000+0  12074-3 0  9990
2 39452  87.3368  16.2703 0002880 101.5634 258.5951 15.51066731722929
SWARM C                 
1 39453U 13067C   26275.79313471  .00006947  00000+0  11872-3 0  9995
2 39453  87.3370  14.8540 0002897 101.2045 258.9542 15.51065067722883
BRITE-CA1 (TORONTO)     
1 40020U 14033L   26275.31608131  .00000408  00000+0  69048-4 0  9994
2 40020  97.9883  42.3629 0077134 294.3563  64.9607 14.72830200657986
OCO 2                   
1 40059U 14035A   26275.76029878  .00000205  00000+0  55568-4 0  9999
2 40059  98.2097 215.4458 0001428  70.1486 289.9866 14.57099878651711
BRITE-PL2 (HEWELIUSZ)   
1 40119U 14049B   26275.54707076  .00001031  00000+0  99814-4 0  9990
2 40119  97.9186  28.4483 0015237 111.1906 249.0943 14.94902434657484
MMS 1                   
1 40482U 15011A   26275.83335647 -.00001555  00000+0  00000+0 0  9992
2 40482  73.0264 347.5333 8240665 169.7936 119.1805  0.28343955  1399
MMS 2                   
1 40483U 15011B   26275.83335647 -.00001556  00000+0  00000+0 0  9994
2 40483  73.0310 347.5321 8243515 169.7945 119.1561  0.28343912  1398
MMS 3                   
1 40484U 15011C   26275.83335647 -.00001556  00000+0  00000+0 0  9995
2 40484  73.0302 347.5443 8241882 169.8034 119.1304  0.28343918  1391
MMS 4                   
1 40485U 15011D   26275.83335647 -.00001556  00000+0  00000+0 0  9996
2 40485  73.0233 347.5283 8242005 169.8133 119.1240  0.28343896  1399
ASTROSAT                
1 40930U 15052A   26273.36875323  .00001268  00000+0  72381-4 0  9997
2 40930   5.9962 118.1416 0007378  99.0192 261.0771 14.82662754595464
DAMPE                   
1 41173U 15078A   26275.82121253  .00000357  00000+0  14484-4 0  9992
2 41173  97.4604 281.8599 0013527  58.1040 302.1515 15.31008075601011
PISAT                   
1 41784U 16059B   26275.82819836  .00000469  00000+0  87385-4 0  9995
2 41784  97.8259 271.7087 0027950 219.4893 140.4277 14.69145729535542
HXMT (HUIYAN)           
1 42758U 17034A   26275.78617662  .00002114  00000+0  10886-3 0  9999
2 42758  43.0149 303.5361 0030093 108.9967 251.4146 15.19256525514021
FLYING LAPTOP           
1 42831U 17042G   26275.88394895  .00001304  00000+0  10457-3 0  9995
2 42831  97.5031  67.6029 0018660 112.5465 247.7737 15.01651930502612
ZHANGHENG 1-01 (CSES-1) 
1 43194U 18015C   26275.84727182  .00003928  00000+0  18126-3 0  9999
2 43194  97.6974  83.7168 0012991 261.4589  98.5174 15.20784180481008
SALSAT                  
1 46495U 20068K   26275.76193326  .00004276  00000+0  14505-3 0  9999
2 46495  97.8886 285.5115 0007641 287.9728  72.0678 15.31112837331812
IXPE                    
1 49954U 21121A   26275.83335647  .00007194  00000+0  36311-3 0  9996
2 49954   0.2289 223.1965 0007061 271.6298 301.2733 15.11090215  5820
SMILE                   
1 69123U 26109A   26274.95711556  .00000681  00000+0  00000+0 0  9992
2 69123  69.9784 206.2836 8136875 285.3553   5.9026  0.47512785   452
