ISS (ZARYA)             
1 25544U 98067A   26257.85283186  .00006182  00000+0  11980-3 0  9991
2 25544  51.6309 216.3168 0004923 141.7352 218.3986 15.49117649585657
POISK                   
1 36086U 09060A   26257.85283186  .00006182  00000+0  11980-3 0  9999
2 36086  51.6309 216.3168 0004923 141.7352 218.3986 15.49117649586460
CSS (TIANHE)            
1 48274U 21035A   26257.84072023  .00019452  00000+0  23788-3 0  9995
2 48274  41.4675 137.6844 0002669 279.4571  80.5965 15.59937976307166
ISS (NAUKA)             
1 49044U 21066A   26257.85283186  .00006182  00000+0  11980-3 0  9997
2 49044  51.6309 216.3168 0004923 141.7352 218.3986 15.49117649586503
FREGAT DEB              
1 49271U 11037PF  26256.73444482  .00015379  00000+0  21697-1 0  9992
2 49271  51.6442  95.2041 0941670 119.1674 250.6712 12.44406137236066
CSS (WENTIAN)           
1 53239U 22085A   26257.84072023  .00019452  00000+0  23788-3 0  9998
2 53239  41.4675 137.6844 0002669 279.4571  80.5965 15.59937976288239
CSS (MENGTIAN)          
1 54216U 22143A   26257.84072023  .00019452  00000+0  23788-3 0  9999
2 54216  41.4675 137.6844 0002669 279.4571  80.5965 15.59937976308070
HRC MONOBLOCK CAMERA    
1 66052U 98067XR  26257.19352162  .00210116  28096-4  56161-3 0  9992
2 66052  51.6152 176.3415 0004870 139.6059 220.5311 15.94067422 52090
SZ-21 MODULE            
1 66515U 25246C   26257.87743325  .00081009  00000+0  32637-3 0  9994
2 66515  41.4693 105.2909 0012053 298.8398  61.1239 15.85259358 47932
DUPLEX                  
1 66906U 98067XS  26257.33416809  .00045369  00000+0  37945-3 0  9990
2 66906  51.6251 197.0423 0004279 136.8782 223.2551 15.69525271 44621
KNACKSAT-2              
1 67683U 98067XZ  26257.22317614  .00056336  00000+0  48483-3 0  9990
2 67683  51.6255 203.8302 0008001 159.8891 200.2423 15.68709818 34210
GXIBA-1                 
1 67685U 98067YB  26256.88961024  .00087195  00000+0  63503-3 0  9990
2 67685  51.6218 203.0684 0008659 155.4995 204.6416 15.72523767 34191
UITMSAT-2               
1 67686U 98067YC  26257.19203161  .00194003  00000+0  84452-3 0  9990
2 67686  51.6227 196.0310 0007930 136.1816 223.9818 15.83642948 34317
LEOPARD                 
1 67687U 98067YD  26257.57089780  .00145956  00000+0  99454-3 0  9993
2 67687  51.6251 200.1566 0008180 138.9142 221.2474 15.73856885 34219
HMU-SAT2                
1 67688U 98067YE  26257.22753096  .00118805  00000+0  68475-3 0  9996
2 67688  51.6249 198.5732 0007880 132.7318 227.4347 15.77775365 34208
CREW DRAGON 12          
1 67796U 26031A   26257.33674855  .00005039  00000+0  99198-4 0  9996
2 67796  51.6309 218.8706 0004930 140.1239 220.0112 15.49109872586541
CYGNUS NG-24            
1 68689U 26079A   26257.33674855  .00005039  00000+0  99198-4 0  9990
2 68689  51.6309 218.8706 0004930 140.1239 220.0112 15.49109872586666
PROGRESS-MS 34          
1 68837U 26093A   26257.33674855  .00005039  00000+0  99198-4 0  9991
2 68837  51.6309 218.8706 0004930 140.1239 220.0112 15.49109872586706
TIANZHOU-10             
1 69049U 26102A   26257.58463244  .00018605  00000+0  22780-3 0  9998
2 69049  41.4676 139.2408 0002662 278.8217  81.2320 15.59928303307940
SHENZHOU-23 (SZ-23)     
1 69180U 26113A   26257.58463244  .00018605  00000+0  22780-3 0  9996
2 69180  41.4676 139.2408 0002662 278.8217  81.2320 15.59928303307553
