DMSP 5D-3 F16 (USA 172) 
1 28054U 03048A   26275.84723793  .00000014  00000+0  31131-4 0  9996
2 28054  98.9844 300.3659 0006767 194.0173 338.7828 14.14493046184705
METEOSAT-9 (MSG-2)      
1 28912U 05049B   26274.97592108  .00000122  00000+0  00000+0 0  9995
2 28912   9.5995  53.0805 0001332   6.1823 348.4810  1.00269885  8062
DMSP 5D-3 F17 (USA 191) 
1 29522U 06050A   26275.86248366  .00000064  00000+0  55464-4 0  9993
2 29522  98.7428 280.2545 0011181 106.7478 253.4923 14.15012018 27652
FENGYUN 3A              
1 32958U 08026A   26275.53397423  .00000047  00000+0  42627-4 0  9996
2 32958  98.6963 214.3882 0008702 171.7360 188.3961 14.19589691950632
EWS-G3 (GOES 14)        
1 35491U 09033A   26275.88172161 -.00000006  00000+0  00000+0 0  9998
2 35491   1.9614  81.4958 0002302 116.7584 200.8362  1.00070008  7665
DMSP 5D-3 F18 (USA 210) 
1 35951U 09057A   26275.83940222  .00000143  00000+0  96991-4 0  9991
2 35951  98.9177 256.4427 0010260 310.0439  49.9833 14.14947585874817
EWS-G2 (GOES 15)        
1 36411U 10008A   26275.47836414  .00000015  00000+0  00000+0 0  9997
2 36411   1.5672  81.7302 0004867  93.0426  71.9697  1.00272324 60712
FENGYUN 3B              
1 37214U 10059A   26275.88807045 -.00000216  00000+0 -88333-4 0  9993
2 37214  98.9503 322.2998 0021106 240.2189 292.7097 14.14858336822656
SUOMI NPP               
1 37849U 11061A   26275.76059448  .00000040  00000+0  40088-4 0  9992
2 37849  98.8034 215.9322 0002389  41.9587 318.1771 14.19536260773704
METEOSAT-10 (MSG-3)     
1 38552U 12035B   26275.18076892 -.00000010  00000+0  00000+0 0  9997
2 38552   4.9206  60.4069 0001055 146.5228 229.1821  1.00273728 51933
METOP-B                 
1 38771U 12049A   26275.81657170  .00000023  00000+0  30274-4 0  9993
2 38771  98.6384 325.1066 0003020  54.7502 305.3958 14.21462247728550
INSAT-3D                
1 39216U 13038B   26275.50567921 -.00000345  00000+0  00000+0 0  9994
2 39216   2.1960  81.0490 0002287 136.6026 105.1392  1.00268969 48156
FENGYUN 3C              
1 39260U 13052A   26275.82027753  .00000052  00000+0  47727-4 0  9994
2 39260  98.5142 244.8252 0015796  74.6540 285.6379 14.15774715673796
METEOR-M 2              
1 40069U 14037A   26275.91176340  .00000098  00000+0  64264-4 0  9999
2 40069  98.5273 247.9077 0006980  83.6800 276.5173 14.21487106634625
HIMAWARI-8              
1 40267U 14060A   26275.21225299 -.00000282  00000+0  00000+0 0  9995
2 40267   0.0055 167.8083 0001372  60.6417 359.5410  1.00267586 43831
FENGYUN 2G              
1 40367U 14090A   26275.86557318 -.00000307  00000+0  00000+0 0  9998
2 40367   5.9043  71.4541 0004427 186.4265 164.9463  1.00265410 43070
METEOSAT-11 (MSG-4)     
1 40732U 15034A   26275.11017061  .00000060  00000+0  00000+0 0  9992
2 40732   3.4641  70.3266 0000483  90.5744 259.0896  1.00278475  8285
ELEKTRO-L 2             
1 41105U 15074A   26275.74807199 -.00000123  00000+0  00000+0 0  9990
2 41105   6.9574  69.1527 0002535 193.7241   3.3899  1.00270876 39584
SENTINEL-3A             
1 41335U 16011A   26275.79577358  .00000027  00000+0  29278-4 0  9998
2 41335  98.6257 341.6230 0001257 104.9837 255.1483 14.26737929553406
INSAT-3DR               
1 41752U 16054A   26275.88152241 -.00000085  00000+0  00000+0 0  9990
2 41752   0.0801  87.1589 0012596 177.4985 138.3060  1.00270819 36897
HIMAWARI-9              
1 41836U 16064A   26272.99142235 -.00000271  00000+0  00000+0 0  9992
2 41836   0.0105  72.2386 0002065 171.6417 262.5744  1.00273774 36266
GOES 16                 
1 41866U 16071A   26275.59252093 -.00000098  00000+0  00000+0 0  9993
2 41866   0.6004  84.0237 0002294 147.7828 248.1351  1.00270956 36187
FENGYUN 4A              
1 41882U 16077A   26275.85461265 -.00000365  00000+0  00000+0 0  9996
2 41882   2.5876  78.8905 0008628 167.5995 195.8659  1.00272453 36013
CYGFM05                 
1 41884U 16078A   26275.31077457  .00019181  00000+0  21774-3 0  9996
2 41884  34.9559 268.7532 0004114 112.4798 247.6364 15.61360830545488
CYGFM04                 
1 41885U 16078B   26275.21512613  .00026834  00000+0  23433-3 0  9991
2 41885  34.9304 230.8629 0004660 186.3453 173.7216 15.67894595545771
CYGFM02                 
1 41886U 16078C   26275.21102138  .00037079  00000+0  26091-3 0  9995
2 41886  34.9384 221.4265 0005623 197.1867 162.8673 15.72995217545989
CYGFM01                 
1 41887U 16078D   26275.31062677  .00019524  00000+0  21422-3 0  9998
2 41887  34.9388 268.8440 0003725 108.2237 251.8894 15.62233376545444
CYGFM08                 
1 41888U 16078E   26275.24920328  .00023986  00000+0  22786-3 0  9998
2 41888  34.9418 245.5530 0005358 152.7918 207.3090 15.65831986545735
CYGFM07                 
1 41890U 16078G   26275.58323021  .00024702  00000+0  23315-3 0  9991
2 41890  34.9427 231.5423 0004986 182.2396 177.8309 15.65990956545814
CYGFM03                 
1 41891U 16078H   26275.23660457  .00024130  00000+0  22820-3 0  9996
2 41891  34.9387 235.7858 0003798 168.4639 191.6175 15.65952478545737
FENGYUN 3D              
1 43010U 17072A   26275.90259582  .00000003  00000+0  23141-4 0  9994
2 43010  99.0282 252.3419 0002504  93.4484 266.6978 14.19758359460274
NOAA 20 (JPSS-1)        
1 43013U 17073A   26275.77434738  .00000040  00000+0  39905-4 0  9997
2 43013  98.7845 214.3077 0000817  31.7204 328.4021 14.19528701459737
GOES 17                 
1 43226U 18022A   26275.51935765 -.00000189  00000+0  00000+0 0  9990
2 43226   1.2070  83.8633 0001436 156.2124 228.6408  1.00269602 31500
SENTINEL-3B             
1 43437U 18039A   26275.41824609  .00000036  00000+0  32862-4 0  9991
2 43437  98.6254 341.4000 0001058  68.0109 292.1184 14.26735848439413
FENGYUN 2H              
1 43491U 18050A   26275.84290894 -.00000136  00000+0  00000+0 0  9990
2 43491   3.3005  77.6999 0003107 154.9200 161.6936  1.00270138 30516
METOP-C                 
1 43689U 18087A   26275.83164720  .00000030  00000+0  33820-4 0  9999
2 43689  98.7311 333.5943 0000350 105.4622 254.6594 14.21475799410121
GEO-KOMPSAT-2A          
1 43823U 18100A   26274.86655153 -.00000348  00000+0  00000+0 0  9994
2 43823   0.0466  25.3242 0001237 108.8306 316.6739  1.00269099 28703
METEOR-M2 2             
1 44387U 19038A   26275.86086609 -.00000027  00000+0  83679-5 0  9999
2 44387  98.9272 264.7951 0002326  74.4910 285.6525 14.24389586376624
FENGYUN 3E              
1 49008U 21062A   26275.87486648 -.00000393  00000+0 -16443-3 0  9992
2 49008  98.7559 278.1108 0002494 116.1765 243.9668 14.19910588271867
GOES 18                 
1 51850U 22021A   26275.51435221  .00000090  00000+0  00000+0 0  9998
2 51850   0.0370  13.9346 0000771 248.3758 157.1101  1.00271913  7668
NOAA 21 (JPSS-2)        
1 54234U 22150A   26275.80539829  .00000031  00000+0  35452-4 0  9990
2 54234  98.7128 212.8076 0000749 225.0024 135.1092 14.19551561201817
METEOSAT-12 (MTG-I1)    
1 54743U 22170C   26275.82217230 -.00000015  00000+0  00000+0 0  9997
2 54743   0.7522  22.0588 0003093  96.9132 188.1823  1.00274247 14059
TIANMU-1 03             
1 55973U 23039A   26275.82438067  .00010636  00000+0  19108-3 0  9993
2 55973  97.5274  94.2823 0003683  77.0680 283.0982 15.50061236197492
TIANMU-1 04             
1 55974U 23039B   26275.83333488  .00011352  00000+0  19884-3 0  9993
2 55974  97.5196  93.4608 0004590  61.1680 299.0032 15.50759642197511
TIANMU-1 05             
1 55975U 23039C   26275.81085095  .00010805  00000+0  19474-3 0  9997
2 55975  97.5254  93.8427 0003501  86.0031 274.1620 15.49967998197472
TIANMU-1 06             
1 55976U 23039D   26275.84458972  .00011191  00000+0  19697-3 0  9995
2 55976  97.5263  94.6268 0003244  81.6227 278.5392 15.50632790197517
FENGYUN 3G              
1 56232U 23055A   26272.26318046  .00016751  00000+0  25793-3 0  9990
2 56232  49.9916 169.2876 0010954  97.6393 262.5820 15.54217677196188
METEOR-M2 3             
1 57166U 23091A   26275.88052154 -.00000030  00000+0  58106-5 0  9993
2 57166  98.5967 328.5905 0003443 201.5570 158.5464 14.24053395169844
TIANMU-1 07             
1 57399U 23101A   26275.85713091  .00003478  00000+0  11918-3 0  9990
2 57399  97.2481 324.0648 0004173 106.2839 253.8862 15.30849308178110
TIANMU-1 08             
1 57400U 23101B   26275.82372088  .00003293  00000+0  11295-3 0  9990
2 57400  97.2469 323.7869 0005528  97.9825 262.2044 15.30846084178109
TIANMU-1 09             
1 57401U 23101C   26275.87157424  .00003531  00000+0  12098-3 0  9998
2 57401  97.2428 323.1917 0004995 109.3517 250.8264 15.30834112178113
TIANMU-1 10             
1 57402U 23101D   26275.83852216  .00003632  00000+0  12415-3 0  9991
2 57402  97.2506 324.3253 0006193 107.9894 252.2023 15.30888487178103
FENGYUN 3F              
1 57490U 23111A   26275.85601152  .00000003  00000+0  21614-4 0  9993
2 57490  98.6735 343.8016 0001447 106.3906 253.7430 14.19953110164145
TIANMU-1 11             
1 58645U 23205A   26275.81706914  .00003073  00000+0  11546-3 0  9990
2 58645  97.3421 295.7396 0008195 355.7158   4.4010 15.27904593153951
TIANMU-1 12             
1 58646U 23205B   26275.87185583  .00003241  00000+0  12285-3 0  9998
2 58646  97.3411 295.4907 0006572 342.1066  17.9941 15.27579822153945
TIANMU-1 13             
1 58647U 23205C   26275.83825612  .00003138  00000+0  11909-3 0  9996
2 58647  97.3437 295.7695 0004782 322.4719  37.6186 15.27569664153930
TIANMU-1 14             
1 58648U 23205D   26275.82110929  .00003132  00000+0  11878-3 0  9993
2 58648  97.3377 294.8503 0005656 327.1815  32.9072 15.27591899153939
TIANMU-1 19             
1 58660U 23208A   26275.84047822  .00005338  00000+0  16987-3 0  9999
2 58660  97.4591  32.8605 0003484 298.8001  61.2891 15.33020237153814
TIANMU-1 20             
1 58661U 23208B   26275.85989985  .00005185  00000+0  15897-3 0  9995
2 58661  97.4537  33.6297 0005564 303.4232  56.6478 15.34214988153921
TIANMU-1 21             
1 58662U 23208C   26275.80663873  .00006221  00000+0  17522-3 0  9995
2 58662  97.4603  36.7517 0005502 294.7198  65.3473 15.36807574154081
TIANMU-1 22             
1 58663U 23208D   26275.86284656  .00004835  00000+0  15718-3 0  9994
2 58663  97.4587  32.7188 0002676 337.8109  22.3017 15.32384666153818
TIANMU-1 15             
1 58700U 24004A   26275.81822138  .00003360  00000+0  12735-3 0  9997
2 58700  97.4666 102.0691 0006244 327.1963  32.8888 15.27583102152207
TIANMU-1 16             
1 58701U 24004B   26275.86877574  .00003282  00000+0  12440-3 0  9993
2 58701  97.4618 101.2929 0005010 344.3181  15.7902 15.27599165152217
TIANMU-1 17             
1 58702U 24004C   26275.85346108  .00003107  00000+0  11762-3 0  9999
2 58702  97.4642 101.8025 0005022 353.8993   6.2184 15.27684660152208
TIANMU-1 18             
1 58703U 24004D   26275.83510296  .00003136  00000+0  11946-3 0  9995
2 58703  97.4659 102.0518 0004532 334.5190  25.5825 15.27470190152204
INSAT-3DS               
1 58990U 24033A   26275.81032175 -.00000164  00000+0  00000+0 0  9992
2 58990   0.0186 121.8579 0001541  87.7970 175.6702  1.00269958 48145
METEOR-M2 4             
1 59051U 24039A   26275.87662920  .00000003  00000+0  21286-4 0  9995
2 59051  98.7160 233.8850 0006324 211.3753 148.7048 14.22438873134573
GOES 19                 
1 60133U 24119A   26275.45437475 -.00000255  00000+0  00000+0 0  9992
2 60133   0.0440  23.3730 0000912 243.1282 193.0816  1.00270664  8041
MTG-S1                  
1 64723U 25143A   26275.85015083 -.00000014  00000+0  00000+0 0  9993
2 64723   0.6140 344.5127 0004242 257.4292  75.5114  1.00274350  4496
METOP-SGA1              
1 65159U 25172A   26275.44354255 -.00000006  00000+0  17345-4 0  9997
2 65159  98.7425 333.3013 0000842 100.0047 260.1225 14.21468591 59020
FENGYUN 3H              
1 65815U 25219A   26275.36053289  .00000028  00000+0  33747-4 0  9999
2 65815  98.6845 214.0735 0001539  89.1901 270.9452 14.19935033 52593
